{"type":"FeatureCollection","crs":{"type":"name","properties":{"name":"urn:ogc:def:crs:OGC:1.3:CRS84"}},"features":[{"type":"Feature","id":"airport:CSX","geometry":{"type":"Point","coordinates":[113.22,28.1892]},"properties":{"id":"e:fac:apt-csx","name":"Changsha Huanghua International Airport","kind":"airport","iata":"CSX","country":"CN","municipality":"Changsha (Changsha)","function":"客货混合·进境水果口岸","geoPrecision":"exact","provenance":{"provider":"OurAirports","url":"https://davidmegginson.github.io/ourairports-data/airports.csv","license":"Public Domain","collectedAt":"2026-09-21","ourAirportsId":"27195","wikipedia":"https://en.wikipedia.org/wiki/Changsha_Huanghua_International_Airport"}}},{"type":"Feature","id":"airport:CAN","geometry":{"type":"Point","coordinates":[113.299,23.3924]},"properties":{"id":"e:fac:apt-can","name":"Guangzhou Baiyun International Airport","kind":"airport","iata":"CAN","country":"CN","municipality":"Guangzhou (Huadu)","function":"客货混合·东南亚水果空运通道","geoPrecision":"exact","provenance":{"provider":"OurAirports","url":"https://davidmegginson.github.io/ourairports-data/airports.csv","license":"Public Domain","collectedAt":"2026-09-21","ourAirportsId":"27194","wikipedia":"https://en.wikipedia.org/wiki/Guangzhou_Baiyun_International_Airport"}}},{"type":"Feature","id":"airport:SZX","geometry":{"type":"Point","coordinates":[113.80326,22.63947]},"properties":{"id":"e:fac:apt-szx","name":"Shenzhen Bao'an International Airport","kind":"airport","iata":"SZX","country":"CN","municipality":"Shenzhen","function":"客货混合·冷链空运","geoPrecision":"exact","provenance":{"provider":"OurAirports","url":"https://davidmegginson.github.io/ourairports-data/airports.csv","license":"Public Domain","collectedAt":"2026-09-21","ourAirportsId":"27198","wikipedia":"https://en.wikipedia.org/wiki/Shenzhen_Bao'an_International_Airport"}}},{"type":"Feature","id":"airport:PVG","geometry":{"type":"Point","coordinates":[121.805,31.1434]},"properties":{"id":"e:fac:apt-pvg","name":"Shanghai Pudong International Airport","kind":"airport","iata":"PVG","country":"CN","municipality":"Shanghai (Pudong)","function":"洲际货运枢纽","geoPrecision":"exact","provenance":{"provider":"OurAirports","url":"https://davidmegginson.github.io/ourairports-data/airports.csv","license":"Public Domain","collectedAt":"2026-09-21","ourAirportsId":"27223","wikipedia":"https://en.wikipedia.org/wiki/Shanghai_Pudong_International_Airport"}}},{"type":"Feature","id":"airport:PEK","geometry":{"type":"Point","coordinates":[116.5967,40.07735]},"properties":{"id":"e:fac:apt-pek","name":"Beijing Capital International Airport","kind":"airport","iata":"PEK","country":"CN","municipality":"Beijing","function":"洲际货运枢纽","geoPrecision":"exact","provenance":{"provider":"OurAirports","url":"https://davidmegginson.github.io/ourairports-data/airports.csv","license":"Public Domain","collectedAt":"2026-09-21","ourAirportsId":"27188","wikipedia":"https://en.wikipedia.org/wiki/Beijing_Capital_International_Airport"}}},{"type":"Feature","id":"airport:CGO","geometry":{"type":"Point","coordinates":[113.84916,34.5265]},"properties":{"id":"e:fac:apt-cgo","name":"Zhengzhou Xinzheng International Airport","kind":"airport","iata":"CGO","country":"CN","municipality":"Zhengzhou","function":"货运枢纽（航空货运）","geoPrecision":"exact","provenance":{"provider":"OurAirports","url":"https://davidmegginson.github.io/ourairports-data/airports.csv","license":"Public Domain","collectedAt":"2026-09-21","ourAirportsId":"27199","wikipedia":"https://en.wikipedia.org/wiki/Zhengzhou_Xinzheng_International_Airport"}}},{"type":"Feature","id":"airport:CTU","geometry":{"type":"Point","coordinates":[103.94597,30.55826]},"properties":{"id":"e:fac:apt-ctu","name":"Chengdu Shuangliu International Airport","kind":"airport","iata":"CTU","country":"CN","municipality":"Chengdu (Shuangliu)","function":"西部航空枢纽","geoPrecision":"exact","provenance":{"provider":"OurAirports","url":"https://davidmegginson.github.io/ourairports-data/airports.csv","license":"Public Domain","collectedAt":"2026-09-21","ourAirportsId":"27230","wikipedia":"https://en.wikipedia.org/wiki/Chengdu_Shuangliu_International_Airport"}}},{"type":"Feature","id":"airport:WUH","geometry":{"type":"Point","coordinates":[114.21372,30.7748]},"properties":{"id":"e:fac:apt-wuh","name":"Wuhan Tianhe International Airport","kind":"airport","iata":"WUH","country":"CN","municipality":"Wuhan (Huangpi)","function":"中部货运枢纽","geoPrecision":"exact","provenance":{"provider":"OurAirports","url":"https://davidmegginson.github.io/ourairports-data/airports.csv","license":"Public Domain","collectedAt":"2026-09-21","ourAirportsId":"27200","wikipedia":"https://en.wikipedia.org/wiki/Wuhan_Tianhe_International_Airport"}}},{"type":"Feature","id":"airport:KMG","geometry":{"type":"Point","coordinates":[102.93674,25.11031]},"properties":{"id":"e:fac:apt-kmg","name":"Kunming Changshui International Airport","kind":"airport","iata":"KMG","country":"CN","municipality":"Kunming","function":"西南果蔬空运枢纽","geoPrecision":"exact","provenance":{"provider":"OurAirports","url":"https://davidmegginson.github.io/ourairports-data/airports.csv","license":"Public Domain","collectedAt":"2026-09-21","ourAirportsId":"27214","wikipedia":"https://en.wikipedia.org/wiki/Kunming_Changshui_International_Airport"}}},{"type":"Feature","id":"airport:XIY","geometry":{"type":"Point","coordinates":[108.76238,34.44221]},"properties":{"id":"e:fac:apt-xiy","name":"Xi'an Xianyang International Airport","kind":"airport","iata":"XIY","country":"CN","municipality":"Xi'an","function":"西北航空枢纽","geoPrecision":"exact","provenance":{"provider":"OurAirports","url":"https://davidmegginson.github.io/ourairports-data/airports.csv","license":"Public Domain","collectedAt":"2026-09-21","ourAirportsId":"27205","wikipedia":"https://en.wikipedia.org/wiki/Xi'an_Xianyang_International_Airport"}}},{"type":"Feature","id":"airport:HAK","geometry":{"type":"Point","coordinates":[110.459,19.9349]},"properties":{"id":"e:fac:apt-hak","name":"Haikou Meilan International Airport","kind":"airport","iata":"HAK","country":"CN","municipality":"Haikou (Meilan)","function":"冬季瓜菜空运出口","geoPrecision":"exact","provenance":{"provider":"OurAirports","url":"https://davidmegginson.github.io/ourairports-data/airports.csv","license":"Public Domain","collectedAt":"2026-09-21","ourAirportsId":"27201","wikipedia":"https://en.wikipedia.org/wiki/Haikou_Meilan_International_Airport"}}},{"type":"Feature","id":"airport:KUL","geometry":{"type":"Point","coordinates":[101.71,2.74558]},"properties":{"id":"e:fac:apt-kul","name":"Kuala Lumpur International Airport","kind":"airport","iata":"KUL","country":"MY","municipality":"Sepang","function":"榴莲与水果空运枢纽","geoPrecision":"exact","provenance":{"provider":"OurAirports","url":"https://davidmegginson.github.io/ourairports-data/airports.csv","license":"Public Domain","collectedAt":"2026-09-21","ourAirportsId":"26874","wikipedia":"https://en.wikipedia.org/wiki/Kuala_Lumpur_International_Airport"}}},{"type":"Feature","id":"airport:PEN","geometry":{"type":"Point","coordinates":[100.27618,5.2963]},"properties":{"id":"e:fac:apt-pen","name":"Penang International Airport","kind":"airport","iata":"PEN","country":"MY","municipality":"Penang","function":"榴莲空运出口","geoPrecision":"exact","provenance":{"provider":"OurAirports","url":"https://davidmegginson.github.io/ourairports-data/airports.csv","license":"Public Domain","collectedAt":"2026-09-21","ourAirportsId":"26878","wikipedia":"https://en.wikipedia.org/wiki/Penang_International_Airport"}}},{"type":"Feature","id":"airport:BKI","geometry":{"type":"Point","coordinates":[116.04932,5.93274]},"properties":{"id":"e:fac:apt-bki","name":"Kota Kinabalu International Airport","kind":"airport","iata":"BKI","country":"MY","municipality":"Kota Kinabalu","function":"热带水果空运出口","geoPrecision":"exact","provenance":{"provider":"OurAirports","url":"https://davidmegginson.github.io/ourairports-data/airports.csv","license":"Public Domain","collectedAt":"2026-09-21","ourAirportsId":"26814","wikipedia":"https://en.wikipedia.org/wiki/Kota_Kinabalu_International_Airport"}}},{"type":"Feature","id":"airport:KBR","geometry":{"type":"Point","coordinates":[102.293,6.16685]},"properties":{"id":"e:fac:apt-kbr","name":"Sultan Ismail Petra Airport","kind":"airport","iata":"KBR","country":"MY","municipality":"Kota Baharu","function":"热带水果空运出口","geoPrecision":"exact","provenance":{"provider":"OurAirports","url":"https://davidmegginson.github.io/ourairports-data/airports.csv","license":"Public Domain","collectedAt":"2026-09-21","ourAirportsId":"26868","wikipedia":"https://en.wikipedia.org/wiki/Sultan_Ismail_Petra_Airport"}}},{"type":"Feature","id":"airport:GRU","geometry":{"type":"Point","coordinates":[-46.46995,-23.43127]},"properties":{"id":"e:fac:apt-gru","name":"São Paulo/Guarulhos–Governor André Franco Montoro International Airport","kind":"airport","iata":"GRU","country":"BR","municipality":"São Paulo","function":"南美航空货运枢纽","geoPrecision":"exact","provenance":{"provider":"OurAirports","url":"https://davidmegginson.github.io/ourairports-data/airports.csv","license":"Public Domain","collectedAt":"2026-09-21","ourAirportsId":"5910","wikipedia":"https://en.wikipedia.org/wiki/S%C3%A3o_Paulo-Guarulhos_International_Airport"}}},{"type":"Feature","id":"airport:VCP","geometry":{"type":"Point","coordinates":[-47.1345,-23.0074]},"properties":{"id":"e:fac:apt-vcp","name":"Viracopos International Airport","kind":"airport","iata":"VCP","country":"BR","municipality":"Campinas","function":"水果空运出口枢纽","geoPrecision":"exact","provenance":{"provider":"OurAirports","url":"https://davidmegginson.github.io/ourairports-data/airports.csv","license":"Public Domain","collectedAt":"2026-09-21","ourAirportsId":"5927","wikipedia":"https://en.wikipedia.org/wiki/Viracopos-Campinas_International_Airport"}}},{"type":"Feature","id":"airport:CGB","geometry":{"type":"Point","coordinates":[-56.1167,-15.6529]},"properties":{"id":"e:fac:apt-cgb","name":"Várzea Grande–Marechal Rondon International Airport","kind":"airport","iata":"CGB","country":"BR","municipality":"Cuiabá","function":"大豆玉米内陆集散","geoPrecision":"exact","provenance":{"provider":"OurAirports","url":"https://davidmegginson.github.io/ourairports-data/airports.csv","license":"Public Domain","collectedAt":"2026-09-21","ourAirportsId":"5894","wikipedia":"https://en.wikipedia.org/wiki/Marechal_Rondon_International_Airport"}}},{"type":"Feature","id":"airport:SCL","geometry":{"type":"Point","coordinates":[-70.7858,-33.393]},"properties":{"id":"e:fac:apt-scl","name":"Comodoro Arturo Merino Benítez International Airport","kind":"airport","iata":"SCL","country":"CL","municipality":"Santiago","function":"车厘子空运枢纽","geoPrecision":"exact","provenance":{"provider":"OurAirports","url":"https://davidmegginson.github.io/ourairports-data/airports.csv","license":"Public Domain","collectedAt":"2026-09-21","ourAirportsId":"6015","wikipedia":"https://en.wikipedia.org/wiki/Comodoro_Arturo_Merino_Ben%C3%ADtez_International_Airport"}}},{"type":"Feature","id":"airport:ORD","geometry":{"type":"Point","coordinates":[-87.9048,41.9786]},"properties":{"id":"e:fac:apt-ord","name":"Chicago O'Hare International Airport","kind":"airport","iata":"ORD","country":"US","municipality":"Chicago","function":"全球货运枢纽","geoPrecision":"exact","provenance":{"provider":"OurAirports","url":"https://davidmegginson.github.io/ourairports-data/airports.csv","license":"Public Domain","collectedAt":"2026-09-21","ourAirportsId":"3754","wikipedia":"https://en.wikipedia.org/wiki/O'Hare_International_Airport"}}},{"type":"Feature","id":"airport:MEM","geometry":{"type":"Point","coordinates":[-89.97634,35.04384]},"properties":{"id":"e:fac:apt-mem","name":"Frederick W. Smith International Airport","kind":"airport","iata":"MEM","country":"US","municipality":"Memphis","function":"全球航空货运枢纽","geoPrecision":"exact","provenance":{"provider":"OurAirports","url":"https://davidmegginson.github.io/ourairports-data/airports.csv","license":"Public Domain","collectedAt":"2026-09-21","ourAirportsId":"3675","wikipedia":"https://en.wikipedia.org/wiki/Memphis_International_Airport"}}},{"type":"Feature","id":"airport:LAX","geometry":{"type":"Point","coordinates":[-118.408,33.9425]},"properties":{"id":"e:fac:apt-lax","name":"Los Angeles International Airport","kind":"airport","iata":"LAX","country":"US","municipality":"Los Angeles","function":"洲际货运枢纽","geoPrecision":"exact","provenance":{"provider":"OurAirports","url":"https://davidmegginson.github.io/ourairports-data/airports.csv","license":"Public Domain","collectedAt":"2026-09-21","ourAirportsId":"3632","wikipedia":"https://en.wikipedia.org/wiki/Los_Angeles_International_Airport"}}},{"type":"Feature","id":"airport:MIA","geometry":{"type":"Point","coordinates":[-80.28975,25.79601]},"properties":{"id":"e:fac:apt-mia","name":"Miami International Airport","kind":"airport","iata":"MIA","country":"US","municipality":"Miami","function":"拉美农产品空运枢纽","geoPrecision":"exact","provenance":{"provider":"OurAirports","url":"https://davidmegginson.github.io/ourairports-data/airports.csv","license":"Public Domain","collectedAt":"2026-09-21","ourAirportsId":"3685","wikipedia":"https://en.wikipedia.org/wiki/Miami_International_Airport"}}},{"type":"Feature","id":"airport:DEL","geometry":{"type":"Point","coordinates":[77.09519,28.55563]},"properties":{"id":"e:fac:apt-del","name":"Indira Gandhi International Airport","kind":"airport","iata":"DEL","country":"IN","municipality":"New Delhi","function":"南亚航空枢纽","geoPrecision":"exact","provenance":{"provider":"OurAirports","url":"https://davidmegginson.github.io/ourairports-data/airports.csv","license":"Public Domain","collectedAt":"2026-09-21","ourAirportsId":"26555","wikipedia":"https://en.wikipedia.org/wiki/Indira_Gandhi_International_Airport"}}},{"type":"Feature","id":"airport:BOM","geometry":{"type":"Point","coordinates":[72.8679,19.0887]},"properties":{"id":"e:fac:apt-bom","name":"Chhatrapati Shivaji Maharaj International Airport","kind":"airport","iata":"BOM","country":"IN","municipality":"Mumbai","function":"南亚航空枢纽","geoPrecision":"exact","provenance":{"provider":"OurAirports","url":"https://davidmegginson.github.io/ourairports-data/airports.csv","license":"Public Domain","collectedAt":"2026-09-21","ourAirportsId":"26434","wikipedia":"https://en.wikipedia.org/wiki/Chhatrapati_Shivaji_International_Airport"}}},{"type":"Feature","id":"airport:MAA","geometry":{"type":"Point","coordinates":[80.1693,12.99001]},"properties":{"id":"e:fac:apt-maa","name":"Chennai International Airport","kind":"airport","iata":"MAA","country":"IN","municipality":"Chennai","function":"南亚航空枢纽","geoPrecision":"exact","provenance":{"provider":"OurAirports","url":"https://davidmegginson.github.io/ourairports-data/airports.csv","license":"Public Domain","collectedAt":"2026-09-21","ourAirportsId":"26618","wikipedia":"https://en.wikipedia.org/wiki/Chennai_International_Airport"}}},{"type":"Feature","id":"airport:BLR","geometry":{"type":"Point","coordinates":[77.7063,13.1979]},"properties":{"id":"e:fac:apt-blr","name":"Kempegowda International Airport Bengaluru","kind":"airport","iata":"BLR","country":"IN","municipality":"Bengaluru","function":"南亚航空枢纽","geoPrecision":"exact","provenance":{"provider":"OurAirports","url":"https://davidmegginson.github.io/ourairports-data/airports.csv","license":"Public Domain","collectedAt":"2026-09-21","ourAirportsId":"35145","wikipedia":"https://en.wikipedia.org/wiki/Kempegowda_International_Airport"}}},{"type":"Feature","id":"airport:SYD","geometry":{"type":"Point","coordinates":[151.177,-33.9461]},"properties":{"id":"e:fac:apt-syd","name":"Sydney Kingsford Smith International Airport","kind":"airport","iata":"SYD","country":"AU","municipality":"Sydney (Mascot)","function":"大洋洲枢纽","geoPrecision":"exact","provenance":{"provider":"OurAirports","url":"https://davidmegginson.github.io/ourairports-data/airports.csv","license":"Public Domain","collectedAt":"2026-09-21","ourAirportsId":"27145","wikipedia":"https://en.wikipedia.org/wiki/Sydney_Airport"}}},{"type":"Feature","id":"airport:MEL","geometry":{"type":"Point","coordinates":[144.8379,-37.67073]},"properties":{"id":"e:fac:apt-mel","name":"Melbourne Airport","kind":"airport","iata":"MEL","country":"AU","municipality":"Melbourne","function":"大洋洲货运枢纽","geoPrecision":"exact","provenance":{"provider":"OurAirports","url":"https://davidmegginson.github.io/ourairports-data/airports.csv","license":"Public Domain","collectedAt":"2026-09-21","ourAirportsId":"27066","wikipedia":"https://en.wikipedia.org/wiki/Melbourne_Airport"}}},{"type":"Feature","id":"airport:BNE","geometry":{"type":"Point","coordinates":[153.117,-27.3842]},"properties":{"id":"e:fac:apt-bne","name":"Brisbane International Airport","kind":"airport","iata":"BNE","country":"AU","municipality":"Brisbane","function":"大洋洲货运枢纽","geoPrecision":"exact","provenance":{"provider":"OurAirports","url":"https://davidmegginson.github.io/ourairports-data/airports.csv","license":"Public Domain","collectedAt":"2026-09-21","ourAirportsId":"26901","wikipedia":"https://en.wikipedia.org/wiki/Brisbane_Airport"}}},{"type":"Feature","id":"airport:PER","geometry":{"type":"Point","coordinates":[115.967,-31.9403]},"properties":{"id":"e:fac:apt-per","name":"Perth International Airport","kind":"airport","iata":"PER","country":"AU","municipality":"Perth","function":"大洋洲枢纽","geoPrecision":"exact","provenance":{"provider":"OurAirports","url":"https://davidmegginson.github.io/ourairports-data/airports.csv","license":"Public Domain","collectedAt":"2026-09-21","ourAirportsId":"27119","wikipedia":"https://en.wikipedia.org/wiki/Perth_Airport"}}},{"type":"Feature","id":"airport:BKK","geometry":{"type":"Point","coordinates":[100.747,13.6811]},"properties":{"id":"e:fac:apt-bkk","name":"Suvarnabhumi Airport","kind":"airport","iata":"BKK","country":"TH","municipality":"Bangkok","function":"东南亚航空枢纽","geoPrecision":"exact","provenance":{"provider":"OurAirports","url":"https://davidmegginson.github.io/ourairports-data/airports.csv","license":"Public Domain","collectedAt":"2026-09-21","ourAirportsId":"28118","wikipedia":"https://en.wikipedia.org/wiki/Suvarnabhumi_Airport"}}},{"type":"Feature","id":"airport:HAN","geometry":{"type":"Point","coordinates":[105.807,21.2212]},"properties":{"id":"e:fac:apt-han","name":"Noi Bai International Airport","kind":"airport","iata":"HAN","country":"VN","municipality":"Hanoi (Soc Son)","function":"东南亚航空枢纽","geoPrecision":"exact","provenance":{"provider":"OurAirports","url":"https://davidmegginson.github.io/ourairports-data/airports.csv","license":"Public Domain","collectedAt":"2026-09-21","ourAirportsId":"26700","wikipedia":"https://en.wikipedia.org/wiki/Noi_Bai_International_Airport"}}},{"type":"Feature","id":"airport:SGN","geometry":{"type":"Point","coordinates":[106.652,10.8188]},"properties":{"id":"e:fac:apt-sgn","name":"Tan Son Nhat International Airport","kind":"airport","iata":"SGN","country":"VN","municipality":"Ho Chi Minh City","function":"东南亚航空枢纽","geoPrecision":"exact","provenance":{"provider":"OurAirports","url":"https://davidmegginson.github.io/ourairports-data/airports.csv","license":"Public Domain","collectedAt":"2026-09-21","ourAirportsId":"26708","wikipedia":"https://en.wikipedia.org/wiki/Tan_Son_Nhat_International_Airport"}}},{"type":"Feature","id":"airport:CGK","geometry":{"type":"Point","coordinates":[106.656,-6.12557]},"properties":{"id":"e:fac:apt-cgk","name":"Soekarno-Hatta International Airport","kind":"airport","iata":"CGK","country":"ID","municipality":"Jakarta","function":"东南亚枢纽","geoPrecision":"exact","provenance":{"provider":"OurAirports","url":"https://davidmegginson.github.io/ourairports-data/airports.csv","license":"Public Domain","collectedAt":"2026-09-21","ourAirportsId":"26835","wikipedia":"https://en.wikipedia.org/wiki/Soekarno-Hatta_International_Airport"}}},{"type":"Feature","id":"airport:MNL","geometry":{"type":"Point","coordinates":[121.02,14.5086]},"properties":{"id":"e:fac:apt-mnl","name":"Ninoy Aquino International Airport","kind":"airport","iata":"MNL","country":"PH","municipality":"Manila (Pasay)","function":"东南亚枢纽","geoPrecision":"exact","provenance":{"provider":"OurAirports","url":"https://davidmegginson.github.io/ourairports-data/airports.csv","license":"Public Domain","collectedAt":"2026-09-21","ourAirportsId":"5689","wikipedia":"https://en.wikipedia.org/wiki/Ninoy_Aquino_International_Airport"}}},{"type":"Feature","id":"airport:NBO","geometry":{"type":"Point","coordinates":[36.92823,-1.31889]},"properties":{"id":"e:fac:apt-nbo","name":"Jomo Kenyatta International Airport","kind":"airport","iata":"NBO","country":"KE","municipality":"Nairobi","function":"东非鲜花与果蔬枢纽","geoPrecision":"exact","provenance":{"provider":"OurAirports","url":"https://davidmegginson.github.io/ourairports-data/airports.csv","license":"Public Domain","collectedAt":"2026-09-21","ourAirportsId":"3206","wikipedia":"https://en.wikipedia.org/wiki/Jomo_Kenyatta_International_Airport"}}},{"type":"Feature","id":"airport:ADD","geometry":{"type":"Point","coordinates":[38.7993,8.97789]},"properties":{"id":"e:fac:apt-add","name":"Addis Ababa Bole International Airport","kind":"airport","iata":"ADD","country":"ET","municipality":"Addis Ababa","function":"非洲货运枢纽","geoPrecision":"exact","provenance":{"provider":"OurAirports","url":"https://davidmegginson.github.io/ourairports-data/airports.csv","license":"Public Domain","collectedAt":"2026-09-21","ourAirportsId":"3157","wikipedia":"https://en.wikipedia.org/wiki/Addis_Ababa_Bole_International_Airport"}}},{"type":"Feature","id":"airport:LOS","geometry":{"type":"Point","coordinates":[3.32116,6.57737]},"properties":{"id":"e:fac:apt-los","name":"Murtala Muhammed International Airport","kind":"airport","iata":"LOS","country":"NG","municipality":"Lagos","function":"西非航空枢纽","geoPrecision":"exact","provenance":{"provider":"OurAirports","url":"https://davidmegginson.github.io/ourairports-data/airports.csv","license":"Public Domain","collectedAt":"2026-09-21","ourAirportsId":"2118","wikipedia":"https://en.wikipedia.org/wiki/Murtala_Muhammed_International_Airport"}}},{"type":"Feature","id":"airport:CAI","geometry":{"type":"Point","coordinates":[31.39669,30.11153]},"properties":{"id":"e:fac:apt-cai","name":"Cairo International Airport","kind":"airport","iata":"CAI","country":"EG","municipality":"Cairo","function":"北非航空枢纽","geoPrecision":"exact","provenance":{"provider":"OurAirports","url":"https://davidmegginson.github.io/ourairports-data/airports.csv","license":"Public Domain","collectedAt":"2026-09-21","ourAirportsId":"3183","wikipedia":"https://en.wikipedia.org/wiki/Cairo_International_Airport"}}},{"type":"Feature","id":"airport:JNB","geometry":{"type":"Point","coordinates":[28.2468,-26.14008]},"properties":{"id":"e:fac:apt-jnb","name":"O.R. Tambo International Airport","kind":"airport","iata":"JNB","country":"ZA","municipality":"Johannesburg","function":"南部非洲枢纽","geoPrecision":"exact","provenance":{"provider":"OurAirports","url":"https://davidmegginson.github.io/ourairports-data/airports.csv","license":"Public Domain","collectedAt":"2026-09-21","ourAirportsId":"31055","wikipedia":"https://en.wikipedia.org/wiki/O._R._Tambo_International_Airport"}}},{"type":"Feature","id":"airport:CPT","geometry":{"type":"Point","coordinates":[18.60433,-33.97403]},"properties":{"id":"e:fac:apt-cpt","name":"Cape Town International Airport","kind":"airport","iata":"CPT","country":"ZA","municipality":"Cape Town","function":"南部非洲枢纽","geoPrecision":"exact","provenance":{"provider":"OurAirports","url":"https://davidmegginson.github.io/ourairports-data/airports.csv","license":"Public Domain","collectedAt":"2026-09-21","ourAirportsId":"2775","wikipedia":"https://en.wikipedia.org/wiki/Cape_Town_International_Airport"}}},{"type":"Feature","id":"airport:FRA","geometry":{"type":"Point","coordinates":[8.55835,50.02671]},"properties":{"id":"e:fac:apt-fra","name":"Frankfurt Main Airport","kind":"airport","iata":"FRA","country":"DE","municipality":"Frankfurt am Main","function":"欧洲货运枢纽","geoPrecision":"exact","provenance":{"provider":"OurAirports","url":"https://davidmegginson.github.io/ourairports-data/airports.csv","license":"Public Domain","collectedAt":"2026-09-21","ourAirportsId":"2212","wikipedia":"https://en.wikipedia.org/wiki/Frankfurt_Airport"}}},{"type":"Feature","id":"airport:AMS","geometry":{"type":"Point","coordinates":[4.76389,52.3086]},"properties":{"id":"e:fac:apt-ams","name":"Amsterdam Airport Schiphol","kind":"airport","iata":"AMS","country":"NL","municipality":"Amsterdam","function":"欧洲农产品枢纽","geoPrecision":"exact","provenance":{"provider":"OurAirports","url":"https://davidmegginson.github.io/ourairports-data/airports.csv","license":"Public Domain","collectedAt":"2026-09-21","ourAirportsId":"2513","wikipedia":"https://en.wikipedia.org/wiki/Amsterdam_Airport_Schiphol"}}},{"type":"Feature","id":"airport:CDG","geometry":{"type":"Point","coordinates":[2.55412,49.00896]},"properties":{"id":"e:fac:apt-cdg","name":"Charles de Gaulle International Airport","kind":"airport","iata":"CDG","country":"FR","municipality":"Paris (Roissy-en-France, Val-d'Oise)","function":"欧洲货运枢纽","geoPrecision":"exact","provenance":{"provider":"OurAirports","url":"https://davidmegginson.github.io/ourairports-data/airports.csv","license":"Public Domain","collectedAt":"2026-09-21","ourAirportsId":"4185","wikipedia":"https://en.wikipedia.org/wiki/Charles_de_Gaulle_Airport"}}},{"type":"Feature","id":"airport:MAD","geometry":{"type":"Point","coordinates":[-3.57225,40.49341]},"properties":{"id":"e:fac:apt-mad","name":"Adolfo Suárez Madrid–Barajas Airport","kind":"airport","iata":"MAD","country":"ES","municipality":"Madrid","function":"伊比利亚果蔬枢纽","geoPrecision":"exact","provenance":{"provider":"OurAirports","url":"https://davidmegginson.github.io/ourairports-data/airports.csv","license":"Public Domain","collectedAt":"2026-09-21","ourAirportsId":"4019","wikipedia":"https://en.wikipedia.org/wiki/Adolfo_Su%C3%A1rez_Madrid%E2%80%93Barajas_Airport"}}},{"type":"Feature","id":"airport:LHR","geometry":{"type":"Point","coordinates":[-0.45991,51.47075]},"properties":{"id":"e:fac:apt-lhr","name":"London Heathrow Airport","kind":"airport","iata":"LHR","country":"GB","municipality":"London","function":"欧洲枢纽","geoPrecision":"exact","provenance":{"provider":"OurAirports","url":"https://davidmegginson.github.io/ourairports-data/airports.csv","license":"Public Domain","collectedAt":"2026-09-21","ourAirportsId":"2434","wikipedia":"https://en.wikipedia.org/wiki/Heathrow_Airport"}}},{"type":"Feature","id":"airport:LEJ","geometry":{"type":"Point","coordinates":[12.2327,51.42066]},"properties":{"id":"e:fac:apt-lej","name":"Leipzig/Halle Airport","kind":"airport","iata":"LEJ","country":"DE","municipality":"Schkeuditz","function":"欧洲货运枢纽","geoPrecision":"exact","provenance":{"provider":"OurAirports","url":"https://davidmegginson.github.io/ourairports-data/airports.csv","license":"Public Domain","collectedAt":"2026-09-21","ourAirportsId":"2220","wikipedia":"https://en.wikipedia.org/wiki/Leipzig/Halle_Airport"}}},{"type":"Feature","id":"airport:NRT","geometry":{"type":"Point","coordinates":[140.38871,35.76858]},"properties":{"id":"e:fac:apt-nrt","name":"Narita International Airport","kind":"airport","iata":"NRT","country":"JP","municipality":"Narita","function":"东亚枢纽","geoPrecision":"exact","provenance":{"provider":"OurAirports","url":"https://davidmegginson.github.io/ourairports-data/airports.csv","license":"Public Domain","collectedAt":"2026-09-21","ourAirportsId":"5531","wikipedia":"https://en.wikipedia.org/wiki/Narita_International_Airport"}}}]}