{"type":"FeatureCollection","crs":{"type":"name","properties":{"name":"urn:ogc:def:crs:OGC:1.3:CRS84"}},"features":[{"type":"Feature","id":"e:fac:cold-hn-hongxing","geometry":{"type":"Point","coordinates":[113.03068,28.13896]},"properties":{"id":"e:fac:cold-hn-hongxing","name":"红星市场冷链仓储中心","kind":"cold_chain","function":"冷库与集散","geoPrecision":"approx","provenance":{"provider":"OpenStreetMap Nominatim","url":"https://nominatim.openstreetmap.org/search","license":"ODbL 1.0 (© OpenStreetMap contributors)","collectedAt":"2026-09-21"}}},{"type":"Feature","id":"e:fac:cold-hn-csx-cargo","geometry":{"type":"Point","coordinates":[113.19851,28.33182]},"properties":{"id":"e:fac:cold-hn-csx-cargo","name":"长沙黄花机场货运区（进境水果指定监管场地）","kind":"port_inland","function":"空运冷链与查验","geoPrecision":"approx","provenance":{"provider":"OpenStreetMap Nominatim","url":"https://nominatim.openstreetmap.org/search","license":"ODbL 1.0 (© OpenStreetMap contributors)","collectedAt":"2026-09-21"}}},{"type":"Feature","id":"e:fac:cold-hn-yueyang-port","geometry":{"type":"Point","coordinates":[113.34865,29.0607]},"properties":{"id":"e:fac:cold-hn-yueyang-port","name":"岳阳城陵矶水运口岸（进境粮食指定口岸）","kind":"port_inland","function":"粮食指定口岸","geoPrecision":"approx","provenance":{"provider":"OpenStreetMap Nominatim","url":"https://nominatim.openstreetmap.org/search","license":"ODbL 1.0 (© OpenStreetMap contributors)","collectedAt":"2026-09-21"}}},{"type":"Feature","id":"e:fac:cold-hn-xiangjiang","geometry":{"type":"Point","coordinates":[112.84994,28.37962]},"properties":{"id":"e:fac:cold-hn-xiangjiang","name":"湘江新区进口水果冷链查验场地","kind":"cold_chain","function":"查验与冷链","geoPrecision":"approx","provenance":{"provider":"OpenStreetMap Nominatim","url":"https://nominatim.openstreetmap.org/search","license":"ODbL 1.0 (© OpenStreetMap contributors)","collectedAt":"2026-09-21"}}}]}