{"type":"FeatureCollection","crs":{"type":"name","properties":{"name":"urn:ogc:def:crs:OGC:1.3:CRS84"}},"features":[{"type":"Feature","id":"port:shanghai","geometry":{"type":"Point","coordinates":[121.48722,31.22194]},"properties":{"id":"e:fac:port-shanghai","name":"上海港","kind":"port","country":"CHN","function":"集装箱/水果与粮食进口口岸","geoPrecision":"exact","provenance":{"provider":"Natural Earth","url":"https://www.naturalearthdata.com/downloads/10m-cultural-vectors/ports/","license":"Public Domain","collectedAt":"2026-09-21","neId":1730089389,"osmId":null}}},{"type":"Feature","id":"port:ningbo","geometry":{"type":"Point","coordinates":[121.55336,29.86667]},"properties":{"id":"e:fac:port-ningbo","name":"宁波舟山港","kind":"port","country":"CHN","function":"集装箱/散货","geoPrecision":"exact","provenance":{"provider":"Natural Earth","url":"https://www.naturalearthdata.com/downloads/10m-cultural-vectors/ports/","license":"Public Domain","collectedAt":"2026-09-21","neId":1730089085,"osmId":null}}},{"type":"Feature","id":"port:qingdao","geometry":{"type":"Point","coordinates":[120.31702,36.09583]},"properties":{"id":"e:fac:port-qingdao","name":"青岛港","kind":"port","country":"CHN","function":"集装箱/粮食与冷链","geoPrecision":"exact","provenance":{"provider":"Natural Earth","url":"https://www.naturalearthdata.com/downloads/10m-cultural-vectors/ports/","license":"Public Domain","collectedAt":"2026-09-21","neId":1730089387,"osmId":null}}},{"type":"Feature","id":"port:tianjin","geometry":{"type":"Point","coordinates":[117.45654,39.00944]},"properties":{"id":"e:fac:port-tianjin","name":"天津港","kind":"port","country":"CHN","function":"集装箱/北方粮食进口","geoPrecision":"exact","provenance":{"provider":"Natural Earth","url":"https://www.naturalearthdata.com/downloads/10m-cultural-vectors/ports/","license":"Public Domain","collectedAt":"2026-09-21","neId":1730089561,"osmId":null}}},{"type":"Feature","id":"port:dalian","geometry":{"type":"Point","coordinates":[121.65035,38.93361]},"properties":{"id":"e:fac:port-dalian","name":"大连港","kind":"port","country":"CHN","function":"散货/粮食","geoPrecision":"exact","provenance":{"provider":"Natural Earth","url":"https://www.naturalearthdata.com/downloads/10m-cultural-vectors/ports/","license":"Public Domain","collectedAt":"2026-09-21","neId":1730089383,"osmId":null}}},{"type":"Feature","id":"port:xiamen","geometry":{"type":"Point","coordinates":[118.02002,24.45]},"properties":{"id":"e:fac:port-xiamen","name":"厦门港","kind":"port","country":"CHN","function":"集装箱/东南亚水果进口","geoPrecision":"exact","provenance":{"provider":"Natural Earth","url":"https://www.naturalearthdata.com/downloads/10m-cultural-vectors/ports/","license":"Public Domain","collectedAt":"2026-09-21","neId":1730089087,"osmId":null}}},{"type":"Feature","id":"port:guangzhou","geometry":{"type":"Point","coordinates":[113.67108,22.64028]},"properties":{"id":"e:fac:port-guangzhou","name":"广州港（南沙）","kind":"port","country":"CHN","function":"集装箱/水果与冷链","geoPrecision":"exact","provenance":{"provider":"Natural Earth","url":"https://www.naturalearthdata.com/downloads/10m-cultural-vectors/ports/","license":"Public Domain","collectedAt":"2026-09-21","neId":1730087953,"osmId":null}}},{"type":"Feature","id":"port:yantian","geometry":{"type":"Point","coordinates":[114.27494,22.57401]},"properties":{"id":"e:fac:port-yantian","name":"深圳盐田港","kind":"port","country":"CHN","function":"集装箱/东南亚水果进口","geoPrecision":"exact","provenance":{"provider":"OpenStreetMap Nominatim","url":"https://nominatim.openstreetmap.org/search","license":"ODbL 1.0 (© OpenStreetMap contributors)","collectedAt":"2026-09-21","neId":null,"osmId":261283912}}},{"type":"Feature","id":"port:klang","geometry":{"type":"Point","coordinates":[101.39136,2.9996]},"properties":{"id":"e:fac:port-klang","name":"巴生港（Port Klang）","kind":"port","country":"MYS","function":"集装箱/榴莲与棕榈油出口","geoPrecision":"exact","provenance":{"provider":"OpenStreetMap Nominatim","url":"https://nominatim.openstreetmap.org/search","license":"ODbL 1.0 (© OpenStreetMap contributors)","collectedAt":"2026-09-21","neId":null,"osmId":6762823158}}},{"type":"Feature","id":"port:penang","geometry":{"type":"Point","coordinates":[100.34459,5.41911]},"properties":{"id":"e:fac:port-penang","name":"槟城港","kind":"port","country":"MYS","function":"集装箱/电子与热带水果","geoPrecision":"exact","provenance":{"provider":"OpenStreetMap Nominatim","url":"https://nominatim.openstreetmap.org/search","license":"ODbL 1.0 (© OpenStreetMap contributors)","collectedAt":"2026-09-21","neId":null,"osmId":1029487734}}},{"type":"Feature","id":"port:santos","geometry":{"type":"Point","coordinates":[-46.30053,-23.96889]},"properties":{"id":"e:fac:port-santos","name":"桑托斯港","kind":"port","country":"BRA","function":"大豆/糖/咖啡出口","geoPrecision":"exact","provenance":{"provider":"Natural Earth","url":"https://www.naturalearthdata.com/downloads/10m-cultural-vectors/ports/","license":"Public Domain","collectedAt":"2026-09-21","neId":1730089059,"osmId":null}}},{"type":"Feature","id":"port:paranagua","geometry":{"type":"Point","coordinates":[-48.51914,-25.50083]},"properties":{"id":"e:fac:port-paranagua","name":"巴拉那瓜港","kind":"port","country":"BRA","function":"大豆/玉米出口","geoPrecision":"exact","provenance":{"provider":"Natural Earth","url":"https://www.naturalearthdata.com/downloads/10m-cultural-vectors/ports/","license":"Public Domain","collectedAt":"2026-09-21","neId":1730089049,"osmId":null}}},{"type":"Feature","id":"port:valparaiso","geometry":{"type":"Point","coordinates":[-71.61914,-33.03528]},"properties":{"id":"e:fac:port-valparaiso","name":"瓦尔帕莱索港","kind":"port","country":"CHL","function":"车厘子/水果出口","geoPrecision":"exact","provenance":{"provider":"Natural Earth","url":"https://www.naturalearthdata.com/downloads/10m-cultural-vectors/ports/","license":"Public Domain","collectedAt":"2026-09-21","neId":1730089555,"osmId":null}}},{"type":"Feature","id":"port:sanantonio","geometry":{"type":"Point","coordinates":[-71.61808,-33.5875]},"properties":{"id":"e:fac:port-sanantonio","name":"圣安东尼奥港","kind":"port","country":"CHL","function":"车厘子/水果出口","geoPrecision":"exact","provenance":{"provider":"Natural Earth","url":"https://www.naturalearthdata.com/downloads/10m-cultural-vectors/ports/","license":"Public Domain","collectedAt":"2026-09-21","neId":1730087333,"osmId":null}}},{"type":"Feature","id":"port:longbeach","geometry":{"type":"Point","coordinates":[-118.20071,33.74889]},"properties":{"id":"e:fac:port-longbeach","name":"长滩港","kind":"port","country":"USA","function":"集装箱/农产品双向","geoPrecision":"exact","provenance":{"provider":"Natural Earth","url":"https://www.naturalearthdata.com/downloads/10m-cultural-vectors/ports/","license":"Public Domain","collectedAt":"2026-09-21","neId":1730089493,"osmId":null}}},{"type":"Feature","id":"port:neworleans","geometry":{"type":"Point","coordinates":[-90.05637,29.9342]},"properties":{"id":"e:fac:port-neworleans","name":"新奥尔良港","kind":"port","country":"USA","function":"粮食（玉米/大豆）出口","geoPrecision":"exact","provenance":{"provider":"Natural Earth","url":"https://www.naturalearthdata.com/downloads/10m-cultural-vectors/ports/","license":"Public Domain","collectedAt":"2026-09-21","neId":1730087797,"osmId":null}}},{"type":"Feature","id":"port:savannah","geometry":{"type":"Point","coordinates":[-81.1225,32.11083]},"properties":{"id":"e:fac:port-savannah","name":"萨凡纳港","kind":"port","country":"USA","function":"集装箱/冷链","geoPrecision":"exact","provenance":{"provider":"Natural Earth","url":"https://www.naturalearthdata.com/downloads/10m-cultural-vectors/ports/","license":"Public Domain","collectedAt":"2026-09-21","neId":1730088965,"osmId":null}}},{"type":"Feature","id":"port:houston","geometry":{"type":"Point","coordinates":[-95.20212,29.73917]},"properties":{"id":"e:fac:port-houston","name":"休斯顿港","kind":"port","country":"USA","function":"粮食与棉花出口","geoPrecision":"exact","provenance":{"provider":"Natural Earth","url":"https://www.naturalearthdata.com/downloads/10m-cultural-vectors/ports/","license":"Public Domain","collectedAt":"2026-09-21","neId":1730089321,"osmId":null}}},{"type":"Feature","id":"port:norfolk","geometry":{"type":"Point","coordinates":[-76.29252,36.90194]},"properties":{"id":"e:fac:port-norfolk","name":"诺福克港","kind":"port","country":"USA","function":"大豆出口","geoPrecision":"exact","provenance":{"provider":"Natural Earth","url":"https://www.naturalearthdata.com/downloads/10m-cultural-vectors/ports/","license":"Public Domain","collectedAt":"2026-09-21","neId":1730089669,"osmId":null}}},{"type":"Feature","id":"port:oakland","geometry":{"type":"Point","coordinates":[-122.30124,37.79944]},"properties":{"id":"e:fac:port-oakland","name":"奥克兰港","kind":"port","country":"USA","function":"冷链/果蔬出口","geoPrecision":"exact","provenance":{"provider":"Natural Earth","url":"https://www.naturalearthdata.com/downloads/10m-cultural-vectors/ports/","license":"Public Domain","collectedAt":"2026-09-21","neId":1730089495,"osmId":null}}},{"type":"Feature","id":"port:nhavasheva","geometry":{"type":"Point","coordinates":[72.95266,18.94703]},"properties":{"id":"e:fac:port-nhavasheva","name":"尼赫鲁港（JNPT）","kind":"port","country":"IND","function":"集装箱/大米与香料出口","geoPrecision":"exact","provenance":{"provider":"OpenStreetMap Nominatim","url":"https://nominatim.openstreetmap.org/search","license":"ODbL 1.0 (© OpenStreetMap contributors)","collectedAt":"2026-09-21","neId":null,"osmId":1650416453}}},{"type":"Feature","id":"port:mundra","geometry":{"type":"Point","coordinates":[69.68472,22.75296]},"properties":{"id":"e:fac:port-mundra","name":"蒙德拉港","kind":"port","country":"IND","function":"集装箱/大米与油粕","geoPrecision":"exact","provenance":{"provider":"OpenStreetMap Nominatim","url":"https://nominatim.openstreetmap.org/search","license":"ODbL 1.0 (© OpenStreetMap contributors)","collectedAt":"2026-09-21","neId":null,"osmId":9087557}}},{"type":"Feature","id":"port:madras","geometry":{"type":"Point","coordinates":[80.3,13.1]},"properties":{"id":"e:fac:port-madras","name":"金奈港","kind":"port","country":"IND","function":"集装箱/大米出口","geoPrecision":"exact","provenance":{"provider":"Natural Earth","url":"https://www.naturalearthdata.com/downloads/10m-cultural-vectors/ports/","license":"Public Domain","collectedAt":"2026-09-21","neId":1730088465,"osmId":null}}},{"type":"Feature","id":"port:sydney","geometry":{"type":"Point","coordinates":[-60.203,46.14194]},"properties":{"id":"e:fac:port-sydney","name":"悉尼港","kind":"port","country":"AUS","function":"集装箱/牛肉与谷物出口","geoPrecision":"exact","provenance":{"provider":"Natural Earth","url":"https://www.naturalearthdata.com/downloads/10m-cultural-vectors/ports/","license":"Public Domain","collectedAt":"2026-09-21","neId":1730088589,"osmId":null}}},{"type":"Feature","id":"port:melbourne","geometry":{"type":"Point","coordinates":[144.9172,-37.83278]},"properties":{"id":"e:fac:port-melbourne","name":"墨尔本港","kind":"port","country":"AUS","function":"集装箱/乳品与肉类","geoPrecision":"exact","provenance":{"provider":"Natural Earth","url":"https://www.naturalearthdata.com/downloads/10m-cultural-vectors/ports/","license":"Public Domain","collectedAt":"2026-09-21","neId":1730089537,"osmId":null}}},{"type":"Feature","id":"port:brisbane","geometry":{"type":"Point","coordinates":[153.16843,-27.3825]},"properties":{"id":"e:fac:port-brisbane","name":"布里斯班港","kind":"port","country":"AUS","function":"集装箱/牛肉与糖","geoPrecision":"exact","provenance":{"provider":"Natural Earth","url":"https://www.naturalearthdata.com/downloads/10m-cultural-vectors/ports/","license":"Public Domain","collectedAt":"2026-09-21","neId":1730089367,"osmId":null}}},{"type":"Feature","id":"port:fremantle","geometry":{"type":"Point","coordinates":[115.7381,-32.0475]},"properties":{"id":"e:fac:port-fremantle","name":"弗里曼特尔港","kind":"port","country":"AUS","function":"粮食（小麦/大麦）出口","geoPrecision":"exact","provenance":{"provider":"Natural Earth","url":"https://www.naturalearthdata.com/downloads/10m-cultural-vectors/ports/","license":"Public Domain","collectedAt":"2026-09-21","neId":1730087263,"osmId":null}}},{"type":"Feature","id":"port:laemchabang","geometry":{"type":"Point","coordinates":[100.89093,13.07389]},"properties":{"id":"e:fac:port-laemchabang","name":"林查班港","kind":"port","country":"THA","function":"集装箱/榴莲与水果出口","geoPrecision":"exact","provenance":{"provider":"Natural Earth","url":"https://www.naturalearthdata.com/downloads/10m-cultural-vectors/ports/","license":"Public Domain","collectedAt":"2026-09-21","neId":1730087729,"osmId":null}}},{"type":"Feature","id":"port:bangkok","geometry":{"type":"Point","coordinates":[100.58492,13.69583]},"properties":{"id":"e:fac:port-bangkok","name":"曼谷港","kind":"port","country":"THA","function":"集装箱/大米出口","geoPrecision":"exact","provenance":{"provider":"Natural Earth","url":"https://www.naturalearthdata.com/downloads/10m-cultural-vectors/ports/","license":"Public Domain","collectedAt":"2026-09-21","neId":1730087727,"osmId":null}}},{"type":"Feature","id":"port:hcmc","geometry":{"type":"Point","coordinates":[106.72179,10.79389]},"properties":{"id":"e:fac:port-hcmc","name":"胡志明市港","kind":"port","country":"VNM","function":"集装箱/水果与大米出口","geoPrecision":"exact","provenance":{"provider":"Natural Earth","url":"https://www.naturalearthdata.com/downloads/10m-cultural-vectors/ports/","license":"Public Domain","collectedAt":"2026-09-21","neId":1730089507,"osmId":null}}},{"type":"Feature","id":"port:haiphong","geometry":{"type":"Point","coordinates":[106.67515,20.86722]},"properties":{"id":"e:fac:port-haiphong","name":"海防港","kind":"port","country":"VNM","function":"集装箱/边境水果通道","geoPrecision":"exact","provenance":{"provider":"Natural Earth","url":"https://www.naturalearthdata.com/downloads/10m-cultural-vectors/ports/","license":"Public Domain","collectedAt":"2026-09-21","neId":1730088371,"osmId":null}}},{"type":"Feature","id":"port:tanjungpriok","geometry":{"type":"Point","coordinates":[106.8904,-6.10139]},"properties":{"id":"e:fac:port-tanjungpriok","name":"丹戎不碌港","kind":"port","country":"IDN","function":"集装箱/棕榈油与水产","geoPrecision":"exact","provenance":{"provider":"Natural Earth","url":"https://www.naturalearthdata.com/downloads/10m-cultural-vectors/ports/","license":"Public Domain","collectedAt":"2026-09-21","neId":1730088085,"osmId":null}}},{"type":"Feature","id":"port:surabaya","geometry":{"type":"Point","coordinates":[113.91667,-7.61667]},"properties":{"id":"e:fac:port-surabaya","name":"泗水港","kind":"port","country":"IDN","function":"集装箱/棕榈油","geoPrecision":"exact","provenance":{"provider":"Natural Earth","url":"https://www.naturalearthdata.com/downloads/10m-cultural-vectors/ports/","license":"Public Domain","collectedAt":"2026-09-21","neId":1730089181,"osmId":null}}},{"type":"Feature","id":"port:belawan","geometry":{"type":"Point","coordinates":[98.68,3.78]},"properties":{"id":"e:fac:port-belawan","name":"勿拉湾港","kind":"port","country":"IDN","function":"散货/棕榈油","geoPrecision":"exact","provenance":{"provider":"Natural Earth","url":"https://www.naturalearthdata.com/downloads/10m-cultural-vectors/ports/","license":"Public Domain","collectedAt":"2026-09-21","neId":1730088473,"osmId":null}}},{"type":"Feature","id":"port:manila","geometry":{"type":"Point","coordinates":[120.9434,14.52417]},"properties":{"id":"e:fac:port-manila","name":"马尼拉港","kind":"port","country":"PHL","function":"集装箱/香蕉出口","geoPrecision":"exact","provenance":{"provider":"Natural Earth","url":"https://www.naturalearthdata.com/downloads/10m-cultural-vectors/ports/","license":"Public Domain","collectedAt":"2026-09-21","neId":1730089633,"osmId":null}}},{"type":"Feature","id":"port:mombasa","geometry":{"type":"Point","coordinates":[39.62214,-4.05306]},"properties":{"id":"e:fac:port-mombasa","name":"蒙巴萨港","kind":"port","country":"KEN","function":"集装箱/茶叶与谷物","geoPrecision":"exact","provenance":{"provider":"Natural Earth","url":"https://www.naturalearthdata.com/downloads/10m-cultural-vectors/ports/","license":"Public Domain","collectedAt":"2026-09-21","neId":1730089457,"osmId":null}}},{"type":"Feature","id":"port:apapa","geometry":{"type":"Point","coordinates":[3.37082,6.44961]},"properties":{"id":"e:fac:port-apapa","name":"阿帕帕港","kind":"port","country":"NGA","function":"集装箱/可可与谷物","geoPrecision":"exact","provenance":{"provider":"OpenStreetMap Nominatim","url":"https://nominatim.openstreetmap.org/search","license":"ODbL 1.0 (© OpenStreetMap contributors)","collectedAt":"2026-09-21","neId":null,"osmId":292127150}}},{"type":"Feature","id":"port:alexandria","geometry":{"type":"Point","coordinates":[-77.03722,38.80111]},"properties":{"id":"e:fac:port-alexandria","name":"亚历山大港","kind":"port","country":"EGY","function":"散货/小麦与柑橘","geoPrecision":"exact","provenance":{"provider":"Natural Earth","url":"https://www.naturalearthdata.com/downloads/10m-cultural-vectors/ports/","license":"Public Domain","collectedAt":"2026-09-21","neId":1730087777,"osmId":null}}},{"type":"Feature","id":"port:durban","geometry":{"type":"Point","coordinates":[31.02338,-29.88111]},"properties":{"id":"e:fac:port-durban","name":"德班港","kind":"port","country":"ZAF","function":"散货/玉米与柑橘","geoPrecision":"exact","provenance":{"provider":"Natural Earth","url":"https://www.naturalearthdata.com/downloads/10m-cultural-vectors/ports/","license":"Public Domain","collectedAt":"2026-09-21","neId":1730089511,"osmId":null}}},{"type":"Feature","id":"port:abidjan","geometry":{"type":"Point","coordinates":[-3.96667,5.23306]},"properties":{"id":"e:fac:port-abidjan","name":"阿比让港","kind":"port","country":"CIV","function":"可可出口","geoPrecision":"exact","provenance":{"provider":"Natural Earth","url":"https://www.naturalearthdata.com/downloads/10m-cultural-vectors/ports/","license":"Public Domain","collectedAt":"2026-09-21","neId":1730089091,"osmId":null}}},{"type":"Feature","id":"port:lehavre","geometry":{"type":"Point","coordinates":[0.17373,49.46694]},"properties":{"id":"e:fac:port-lehavre","name":"勒阿弗尔港","kind":"port","country":"FRA","function":"粮食/谷物出口","geoPrecision":"exact","provenance":{"provider":"Natural Earth","url":"https://www.naturalearthdata.com/downloads/10m-cultural-vectors/ports/","license":"Public Domain","collectedAt":"2026-09-21","neId":1730089583,"osmId":null}}},{"type":"Feature","id":"port:rotterdam","geometry":{"type":"Point","coordinates":[4.29287,51.92722]},"properties":{"id":"e:fac:port-rotterdam","name":"鹿特丹港","kind":"port","country":"NLD","function":"粮食与油料中转","geoPrecision":"exact","provenance":{"provider":"Natural Earth","url":"https://www.naturalearthdata.com/downloads/10m-cultural-vectors/ports/","license":"Public Domain","collectedAt":"2026-09-21","neId":1730089247,"osmId":null}}},{"type":"Feature","id":"port:valencia","geometry":{"type":"Point","coordinates":[-0.31843,39.44417]},"properties":{"id":"e:fac:port-valencia","name":"瓦伦西亚港","kind":"port","country":"ESP","function":"冷链/果蔬出口","geoPrecision":"exact","provenance":{"provider":"Natural Earth","url":"https://www.naturalearthdata.com/downloads/10m-cultural-vectors/ports/","license":"Public Domain","collectedAt":"2026-09-21","neId":1730089123,"osmId":null}}},{"type":"Feature","id":"port:hamburg","geometry":{"type":"Point","coordinates":[9.95848,53.52472]},"properties":{"id":"e:fac:port-hamburg","name":"汉堡港","kind":"port","country":"DEU","function":"粮食与油料","geoPrecision":"exact","provenance":{"provider":"Natural Earth","url":"https://www.naturalearthdata.com/downloads/10m-cultural-vectors/ports/","license":"Public Domain","collectedAt":"2026-09-21","neId":1730089111,"osmId":null}}},{"type":"Feature","id":"port:piraeus","geometry":{"type":"Point","coordinates":[23.65654,37.93722]},"properties":{"id":"e:fac:port-piraeus","name":"比雷埃夫斯港","kind":"port","country":"GRC","function":"集装箱/地中海中转","geoPrecision":"exact","provenance":{"provider":"Natural Earth","url":"https://www.naturalearthdata.com/downloads/10m-cultural-vectors/ports/","license":"Public Domain","collectedAt":"2026-09-21","neId":1730087471,"osmId":null}}},{"type":"Feature","id":"port:sudan","geometry":{"type":"Point","coordinates":[37.22161,19.61583]},"properties":{"id":"e:fac:port-sudan","name":"苏丹港","kind":"port","country":"SDN","function":"谷物进口","geoPrecision":"exact","provenance":{"provider":"Natural Earth","url":"https://www.naturalearthdata.com/downloads/10m-cultural-vectors/ports/","license":"Public Domain","collectedAt":"2026-09-21","neId":1730089285,"osmId":null}}},{"type":"Feature","id":"port:beira","geometry":{"type":"Point","coordinates":[34.83351,-19.81917]},"properties":{"id":"e:fac:port-beira","name":"贝拉港","kind":"port","country":"MOZ","function":"谷物与糖进口","geoPrecision":"exact","provenance":{"provider":"Natural Earth","url":"https://www.naturalearthdata.com/downloads/10m-cultural-vectors/ports/","license":"Public Domain","collectedAt":"2026-09-21","neId":1730089229,"osmId":null}}},{"type":"Feature","id":"port:buenosaires","geometry":{"type":"Point","coordinates":[-58.36967,-34.59917]},"properties":{"id":"e:fac:port-buenosaires","name":"布宜诺斯艾利斯港","kind":"port","country":"ARG","function":"谷物与油粕出口","geoPrecision":"exact","provenance":{"provider":"Natural Earth","url":"https://www.naturalearthdata.com/downloads/10m-cultural-vectors/ports/","license":"Public Domain","collectedAt":"2026-09-21","neId":1730089533,"osmId":null}}},{"type":"Feature","id":"port:vancouver","geometry":{"type":"Point","coordinates":[-122.70389,45.63472]},"properties":{"id":"e:fac:port-vancouver","name":"温哥华港","kind":"port","country":"CAN","function":"粮食与油菜籽出口","geoPrecision":"exact","provenance":{"provider":"Natural Earth","url":"https://www.naturalearthdata.com/downloads/10m-cultural-vectors/ports/","license":"Public Domain","collectedAt":"2026-09-21","neId":1730087783,"osmId":null}}},{"type":"Feature","id":"port:montreal","geometry":{"type":"Point","coordinates":[-73.52462,45.54361]},"properties":{"id":"e:fac:port-montreal","name":"蒙特利尔港","kind":"port","country":"CAN","function":"粮食","geoPrecision":"exact","provenance":{"provider":"Natural Earth","url":"https://www.naturalearthdata.com/downloads/10m-cultural-vectors/ports/","license":"Public Domain","collectedAt":"2026-09-21","neId":1730089375,"osmId":null}}},{"type":"Feature","id":"port:yokohama","geometry":{"type":"Point","coordinates":[139.66737,35.43639]},"properties":{"id":"e:fac:port-yokohama","name":"横滨港","kind":"port","country":"JPN","function":"集装箱/粮食进口","geoPrecision":"exact","provenance":{"provider":"Natural Earth","url":"https://www.naturalearthdata.com/downloads/10m-cultural-vectors/ports/","license":"Public Domain","collectedAt":"2026-09-21","neId":1730089613,"osmId":null}}},{"type":"Feature","id":"port:kaohsiung","geometry":{"type":"Point","coordinates":[120.30707,22.56528]},"properties":{"id":"e:fac:port-kaohsiung","name":"高雄港","kind":"port","country":"TWN","function":"集装箱/水果","geoPrecision":"exact","provenance":{"provider":"Natural Earth","url":"https://www.naturalearthdata.com/downloads/10m-cultural-vectors/ports/","license":"Public Domain","collectedAt":"2026-09-21","neId":1730089303,"osmId":null}}},{"type":"Feature","id":"port:keelung","geometry":{"type":"Point","coordinates":[121.72584,25.22076]},"properties":{"id":"e:fac:port-keelung","name":"基隆港","kind":"port","country":"TWN","function":"集装箱/水果","geoPrecision":"exact","provenance":{"provider":"Natural Earth","url":"https://www.naturalearthdata.com/downloads/10m-cultural-vectors/ports/","license":"Public Domain","collectedAt":"2026-09-21","neId":1730087787,"osmId":null}}},{"type":"Feature","id":"port:colombo","geometry":{"type":"Point","coordinates":[79.85018,6.95139]},"properties":{"id":"e:fac:port-colombo","name":"科伦坡港","kind":"port","country":"LKA","function":"集装箱/茶叶与中转","geoPrecision":"exact","provenance":{"provider":"Natural Earth","url":"https://www.naturalearthdata.com/downloads/10m-cultural-vectors/ports/","license":"Public Domain","collectedAt":"2026-09-21","neId":1730089217,"osmId":null}}},{"type":"Feature","id":"port:chittagong","geometry":{"type":"Point","coordinates":[91.82585,22.26889]},"properties":{"id":"e:fac:port-chittagong","name":"吉大港","kind":"port","country":"BGD","function":"集装箱/谷物进口","geoPrecision":"exact","provenance":{"provider":"Natural Earth","url":"https://www.naturalearthdata.com/downloads/10m-cultural-vectors/ports/","license":"Public Domain","collectedAt":"2026-09-21","neId":1730089371,"osmId":null}}},{"type":"Feature","id":"port:antwerpen","geometry":{"type":"Point","coordinates":[4.29376,51.29778]},"properties":{"id":"e:fac:port-antwerpen","name":"安特卫普港","kind":"port","country":"BEL","function":"粮食/油料与冷链","geoPrecision":"exact","provenance":{"provider":"Natural Earth","url":"https://www.naturalearthdata.com/downloads/10m-cultural-vectors/ports/","license":"Public Domain","collectedAt":"2026-09-21","neId":1730089039,"osmId":null}}}]}