{"type":"FeatureCollection","crs":{"type":"name","properties":{"name":"urn:ogc:def:crs:OGC:1.3:CRS84"}},"features":[{"type":"Feature","id":"base:hn-mayang","geometry":{"type":"Point","coordinates":[109.69217,27.7721]},"properties":{"id":"e:base:hn-mayang","name":"湖南麻阳冰糖橙产区","kind":"production_area","commodityIds":["e:cmd:mandarin-honey"],"commodityNames":["冰糖橙"],"country":"CN","adminArea":"怀化市麻阳苗族自治县","geoPrecision":"region_center","coordinateMeaning":"产区所在行政区代表点（非田块级坐标）","anchorPlace":"麻阳苗族自治县","provenance":{"provider":"OpenStreetMap Nominatim","url":"https://nominatim.openstreetmap.org/search","license":"ODbL 1.0 (© OpenStreetMap contributors)","collectedAt":"2026-09-21","osmId":3074576,"geonameId":null}}},{"type":"Feature","id":"base:hn-jiangyong","geometry":{"type":"Point","coordinates":[111.24138,25.23119]},"properties":{"id":"e:base:hn-jiangyong","name":"湖南江永香柚产区","kind":"production_area","commodityIds":["e:cmd:pomelo"],"commodityNames":["香柚"],"country":"CN","adminArea":"永州市江永县","geoPrecision":"region_center","coordinateMeaning":"产区所在行政区代表点（非田块级坐标）","anchorPlace":"江永县","provenance":{"provider":"OpenStreetMap Nominatim","url":"https://nominatim.openstreetmap.org/search","license":"ODbL 1.0 (© OpenStreetMap contributors)","collectedAt":"2026-09-21","osmId":2098642,"geonameId":null}}},{"type":"Feature","id":"base:hn-anhua","geometry":{"type":"Point","coordinates":[111.40288,28.30314]},"properties":{"id":"e:base:hn-anhua","name":"湖南安化黑茶产区","kind":"production_area","commodityIds":["e:cmd:tea-dark"],"commodityNames":["黑茶"],"country":"CN","adminArea":"益阳市安化县","geoPrecision":"region_center","coordinateMeaning":"产区所在行政区代表点（非田块级坐标）","anchorPlace":"安化县","provenance":{"provider":"OpenStreetMap Nominatim","url":"https://nominatim.openstreetmap.org/search","license":"ODbL 1.0 (© OpenStreetMap contributors)","collectedAt":"2026-09-21","osmId":3202587,"geonameId":null}}},{"type":"Feature","id":"base:hn-jingzhou","geometry":{"type":"Point","coordinates":[109.57093,26.55699]},"properties":{"id":"e:base:hn-jingzhou","name":"湖南靖州杨梅产区","kind":"production_area","commodityIds":["e:cmd:bayberry"],"commodityNames":["杨梅"],"country":"CN","adminArea":"怀化市靖州县","geoPrecision":"region_center","coordinateMeaning":"产区所在行政区代表点（非田块级坐标）","anchorPlace":"靖州苗族侗族自治县","provenance":{"provider":"OpenStreetMap Nominatim","url":"https://nominatim.openstreetmap.org/search","license":"ODbL 1.0 (© OpenStreetMap contributors)","collectedAt":"2026-09-21","osmId":3074575,"geonameId":null}}},{"type":"Feature","id":"base:hn-yongxing","geometry":{"type":"Point","coordinates":[113.18593,26.21126]},"properties":{"id":"e:base:hn-yongxing","name":"湖南永兴冰糖橙产区","kind":"production_area","commodityIds":["e:cmd:mandarin-honey"],"commodityNames":["冰糖橙"],"country":"CN","adminArea":"郴州市永兴县","geoPrecision":"region_center","coordinateMeaning":"产区所在行政区代表点（非田块级坐标）","anchorPlace":"永兴县","provenance":{"provider":"OpenStreetMap Nominatim","url":"https://nominatim.openstreetmap.org/search","license":"ODbL 1.0 (© OpenStreetMap contributors)","collectedAt":"2026-09-21","osmId":3123970,"geonameId":null}}},{"type":"Feature","id":"base:hn-dongkou","geometry":{"type":"Point","coordinates":[110.61848,27.10088]},"properties":{"id":"e:base:hn-dongkou","name":"湖南洞口雪峰蜜桔产区","kind":"production_area","commodityIds":["e:cmd:navel-orange"],"commodityNames":["脐橙"],"country":"CN","adminArea":"邵阳市洞口县","geoPrecision":"region_center","coordinateMeaning":"产区所在行政区代表点（非田块级坐标）","anchorPlace":"洞口县","provenance":{"provider":"OpenStreetMap Nominatim","url":"https://nominatim.openstreetmap.org/search","license":"ODbL 1.0 (© OpenStreetMap contributors)","collectedAt":"2026-09-21","osmId":3075371,"geonameId":null}}},{"type":"Feature","id":"base:hn-longhui","geometry":{"type":"Point","coordinates":[110.98969,27.31771]},"properties":{"id":"e:base:hn-longhui","name":"湖南隆回金银花与龙牙百合产区","kind":"production_area","commodityIds":["e:cmd:honeysuckle","e:cmd:lily-bulb"],"commodityNames":["金银花","龙牙百合"],"country":"CN","adminArea":"邵阳市隆回县","geoPrecision":"region_center","coordinateMeaning":"产区所在行政区代表点（非田块级坐标）","anchorPlace":"隆回县","provenance":{"provider":"OpenStreetMap Nominatim","url":"https://nominatim.openstreetmap.org/search","license":"ODbL 1.0 (© OpenStreetMap contributors)","collectedAt":"2026-09-21","osmId":3075372,"geonameId":null}}},{"type":"Feature","id":"base:hn-qidong","geometry":{"type":"Point","coordinates":[112.08475,26.80071]},"properties":{"id":"e:base:hn-qidong","name":"湖南祁东黄花菜产区","kind":"production_area","commodityIds":["e:cmd:daylily"],"commodityNames":["黄花菜"],"country":"CN","adminArea":"衡阳市祁东县","geoPrecision":"region_center","coordinateMeaning":"产区所在行政区代表点（非田块级坐标）","anchorPlace":"祁东县","provenance":{"provider":"OpenStreetMap Nominatim","url":"https://nominatim.openstreetmap.org/search","license":"ODbL 1.0 (© OpenStreetMap contributors)","collectedAt":"2026-09-21","osmId":3156150,"geonameId":null}}},{"type":"Feature","id":"base:hn-hanshou","geometry":{"type":"Point","coordinates":[112.03021,28.86681]},"properties":{"id":"e:base:hn-hanshou","name":"湖南汉寿甲鱼与蔬菜产区","kind":"production_area","commodityIds":["e:cmd:softshell-turtle","e:cmd:cabbage"],"commodityNames":["甲鱼","大白菜"],"country":"CN","adminArea":"常德市汉寿县","geoPrecision":"region_center","coordinateMeaning":"产区所在行政区代表点（非田块级坐标）","anchorPlace":"汉寿县","provenance":{"provider":"OpenStreetMap Nominatim","url":"https://nominatim.openstreetmap.org/search","license":"ODbL 1.0 (© OpenStreetMap contributors)","collectedAt":"2026-09-21","osmId":3161352,"geonameId":null}}},{"type":"Feature","id":"base:hn-yanling","geometry":{"type":"Point","coordinates":[113.84281,26.38238]},"properties":{"id":"e:base:hn-yanling","name":"湖南炎陵黄桃产区","kind":"production_area","commodityIds":["e:cmd:peach-yellow"],"commodityNames":["黄桃"],"country":"CN","adminArea":"株洲市炎陵县","geoPrecision":"region_center","coordinateMeaning":"产区所在行政区代表点（非田块级坐标）","anchorPlace":"炎陵县","provenance":{"provider":"OpenStreetMap Nominatim","url":"https://nominatim.openstreetmap.org/search","license":"ODbL 1.0 (© OpenStreetMap contributors)","collectedAt":"2026-09-21","osmId":2972717,"geonameId":null}}},{"type":"Feature","id":"base:hn-shimen","geometry":{"type":"Point","coordinates":[111.12253,29.80356]},"properties":{"id":"e:base:hn-shimen","name":"湖南石门柑橘产区","kind":"production_area","commodityIds":["e:cmd:navel-orange"],"commodityNames":["脐橙"],"country":"CN","adminArea":"常德市石门县","geoPrecision":"region_center","coordinateMeaning":"产区所在行政区代表点（非田块级坐标）","anchorPlace":"石门县","provenance":{"provider":"OpenStreetMap Nominatim","url":"https://nominatim.openstreetmap.org/search","license":"ODbL 1.0 (© OpenStreetMap contributors)","collectedAt":"2026-09-21","osmId":3152925,"geonameId":null}}},{"type":"Feature","id":"base:hn-yuanjiang","geometry":{"type":"Point","coordinates":[112.56076,28.97393]},"properties":{"id":"e:base:hn-yuanjiang","name":"湖南沅江芦笋与水稻产区","kind":"production_area","commodityIds":["e:cmd:asparagus-lettuce","e:cmd:rice"],"commodityNames":["芦笋","大米"],"country":"CN","adminArea":"益阳市沅江市","geoPrecision":"region_center","coordinateMeaning":"产区所在行政区代表点（非田块级坐标）","anchorPlace":"沅江市","provenance":{"provider":"OpenStreetMap Nominatim","url":"https://nominatim.openstreetmap.org/search","license":"ODbL 1.0 (© OpenStreetMap contributors)","collectedAt":"2026-09-21","osmId":3202591,"geonameId":null}}},{"type":"Feature","id":"base:hn-daoxian","geometry":{"type":"Point","coordinates":[111.60092,25.46814]},"properties":{"id":"e:base:hn-daoxian","name":"湖南道县脐橙产区","kind":"production_area","commodityIds":["e:cmd:navel-orange"],"commodityNames":["脐橙"],"country":"CN","adminArea":"永州市道县","geoPrecision":"region_center","coordinateMeaning":"产区所在行政区代表点（非田块级坐标）","anchorPlace":"道县","provenance":{"provider":"OpenStreetMap Nominatim","url":"https://nominatim.openstreetmap.org/search","license":"ODbL 1.0 (© OpenStreetMap contributors)","collectedAt":"2026-09-21","osmId":3149850,"geonameId":null}}},{"type":"Feature","id":"base:hn-taoyuan","geometry":{"type":"Point","coordinates":[111.25262,28.88961]},"properties":{"id":"e:base:hn-taoyuan","name":"湖南桃源富硒稻米产区","kind":"production_area","commodityIds":["e:cmd:rice"],"commodityNames":["大米"],"country":"CN","adminArea":"常德市桃源县","geoPrecision":"region_center","coordinateMeaning":"产区所在行政区代表点（非田块级坐标）","anchorPlace":"桃源县","provenance":{"provider":"OpenStreetMap Nominatim","url":"https://nominatim.openstreetmap.org/search","license":"ODbL 1.0 (© OpenStreetMap contributors)","collectedAt":"2026-09-21","osmId":3152417,"geonameId":null}}},{"type":"Feature","id":"base:hn-ningxiang","geometry":{"type":"Point","coordinates":[112.36524,28.14042]},"properties":{"id":"e:base:hn-ningxiang","name":"湖南宁乡花猪与水稻产区","kind":"production_area","commodityIds":["e:cmd:pork","e:cmd:rice"],"commodityNames":["猪肉","大米"],"country":"CN","adminArea":"长沙市宁乡市","geoPrecision":"region_center","coordinateMeaning":"产区所在行政区代表点（非田块级坐标）","anchorPlace":"宁乡市","provenance":{"provider":"OpenStreetMap Nominatim","url":"https://nominatim.openstreetmap.org/search","license":"ODbL 1.0 (© OpenStreetMap contributors)","collectedAt":"2026-09-21","osmId":3202706,"geonameId":null}}},{"type":"Feature","id":"base:hn-changshaxian","geometry":{"type":"Point","coordinates":[113.19851,28.33182]},"properties":{"id":"e:base:hn-changshaxian","name":"长沙县蔬菜与水稻产区","kind":"production_area","commodityIds":["e:cmd:cabbage","e:cmd:rice"],"commodityNames":["大白菜","大米"],"country":"CN","adminArea":"长沙市长沙县","geoPrecision":"region_center","coordinateMeaning":"产区所在行政区代表点（非田块级坐标）","anchorPlace":"长沙县","provenance":{"provider":"OpenStreetMap Nominatim","url":"https://nominatim.openstreetmap.org/search","license":"ODbL 1.0 (© OpenStreetMap contributors)","collectedAt":"2026-09-21","osmId":3202703,"geonameId":null}}},{"type":"Feature","id":"base:hn-liuyang","geometry":{"type":"Point","coordinates":[113.70017,28.2179]},"properties":{"id":"e:base:hn-liuyang","name":"浏阳蔬菜与油料产区","kind":"production_area","commodityIds":["e:cmd:chili","e:cmd:rapeseed"],"commodityNames":["辣椒","油菜籽"],"country":"CN","adminArea":"长沙市浏阳市","geoPrecision":"region_center","coordinateMeaning":"产区所在行政区代表点（非田块级坐标）","anchorPlace":"浏阳市","provenance":{"provider":"OpenStreetMap Nominatim","url":"https://nominatim.openstreetmap.org/search","license":"ODbL 1.0 (© OpenStreetMap contributors)","collectedAt":"2026-09-21","osmId":3200778,"geonameId":null}}},{"type":"Feature","id":"base:hn-wangcheng","geometry":{"type":"Point","coordinates":[112.84994,28.37962]},"properties":{"id":"e:base:hn-wangcheng","name":"望城蔬菜与水产产区","kind":"production_area","commodityIds":["e:cmd:crayfish","e:cmd:cabbage"],"commodityNames":["小龙虾","大白菜"],"country":"CN","adminArea":"长沙市望城区","geoPrecision":"region_center","coordinateMeaning":"产区所在行政区代表点（非田块级坐标）","anchorPlace":"望城区","provenance":{"provider":"OpenStreetMap Nominatim","url":"https://nominatim.openstreetmap.org/search","license":"ODbL 1.0 (© OpenStreetMap contributors)","collectedAt":"2026-09-21","osmId":3202708,"geonameId":null}}},{"type":"Feature","id":"base:gd-maoming","geometry":{"type":"Point","coordinates":[110.92095,21.6657]},"properties":{"id":"e:base:gd-maoming","name":"茂名罗氏虾与荔枝产区","kind":"production_area","commodityIds":["e:cmd:shrimp-vannamei","e:cmd:lychee"],"commodityNames":["南美白对虾","荔枝"],"country":"CN","adminArea":"广东省茂名市","geoPrecision":"region_center","coordinateMeaning":"产区所在行政区代表点（非田块级坐标）","anchorPlace":"茂名市","provenance":{"provider":"OpenStreetMap Nominatim","url":"https://nominatim.openstreetmap.org/search","license":"ODbL 1.0 (© OpenStreetMap contributors)","collectedAt":"2026-09-21","osmId":2689018,"geonameId":null}}},{"type":"Feature","id":"base:gd-zhanjiang","geometry":{"type":"Point","coordinates":[110.35483,21.27371]},"properties":{"id":"e:base:gd-zhanjiang","name":"湛江水产与菠萝产区","kind":"production_area","commodityIds":["e:cmd:shrimp-vannamei","e:cmd:pineapple"],"commodityNames":["南美白对虾","菠萝"],"country":"CN","adminArea":"广东省湛江市","geoPrecision":"region_center","coordinateMeaning":"产区所在行政区代表点（非田块级坐标）","anchorPlace":"湛江市","provenance":{"provider":"OpenStreetMap Nominatim","url":"https://nominatim.openstreetmap.org/search","license":"ODbL 1.0 (© OpenStreetMap contributors)","collectedAt":"2026-09-21","osmId":3484419,"geonameId":null}}},{"type":"Feature","id":"base:gd-xuwen","geometry":{"type":"Point","coordinates":[110.22265,20.44072]},"properties":{"id":"e:base:gd-xuwen","name":"徐闻菠萝产区","kind":"production_area","commodityIds":["e:cmd:pineapple"],"commodityNames":["菠萝"],"country":"CN","adminArea":"广东省湛江市徐闻县","geoPrecision":"region_center","coordinateMeaning":"产区所在行政区代表点（非田块级坐标）","anchorPlace":"徐闻县","provenance":{"provider":"OpenStreetMap Nominatim","url":"https://nominatim.openstreetmap.org/search","license":"ODbL 1.0 (© OpenStreetMap contributors)","collectedAt":"2026-09-21","osmId":3484449,"geonameId":null}}},{"type":"Feature","id":"base:cn-shouguang","geometry":{"type":"Point","coordinates":[118.73225,36.87624]},"properties":{"id":"e:base:cn-shouguang","name":"山东寿光设施蔬菜产区","kind":"production_area","commodityIds":["e:cmd:tomato","e:cmd:chili"],"commodityNames":["番茄","辣椒"],"country":"CN","adminArea":"山东省潍坊市寿光市","geoPrecision":"region_center","coordinateMeaning":"产区所在行政区代表点（非田块级坐标）","anchorPlace":"寿光市","provenance":{"provider":"OpenStreetMap Nominatim","url":"https://nominatim.openstreetmap.org/search","license":"ODbL 1.0 (© OpenStreetMap contributors)","collectedAt":"2026-09-21","osmId":3468767,"geonameId":null}}},{"type":"Feature","id":"base:cn-jinxiang","geometry":{"type":"Point","coordinates":[116.31419,35.0745]},"properties":{"id":"e:base:cn-jinxiang","name":"山东金乡大蒜产区","kind":"production_area","commodityIds":["e:cmd:garlic"],"commodityNames":["大蒜"],"country":"CN","adminArea":"山东省济宁市金乡县","geoPrecision":"region_center","coordinateMeaning":"产区所在行政区代表点（非田块级坐标）","anchorPlace":"金乡县","provenance":{"provider":"OpenStreetMap Nominatim","url":"https://nominatim.openstreetmap.org/search","license":"ODbL 1.0 (© OpenStreetMap contributors)","collectedAt":"2026-09-21","osmId":3286950,"geonameId":null}}},{"type":"Feature","id":"base:cn-luochuan","geometry":{"type":"Point","coordinates":[109.48861,35.75556]},"properties":{"id":"e:base:cn-luochuan","name":"陕西洛川苹果产区","kind":"production_area","commodityIds":["e:cmd:apple"],"commodityNames":["苹果"],"country":"CN","adminArea":"陕西省延安市洛川县","geoPrecision":"region_center","coordinateMeaning":"产区所在行政区代表点（非田块级坐标）","anchorPlace":"洛川县","provenance":{"provider":"OpenStreetMap Nominatim","url":"https://nominatim.openstreetmap.org/search","license":"ODbL 1.0 (© OpenStreetMap contributors)","collectedAt":"2026-09-21","osmId":3019994,"geonameId":null}}},{"type":"Feature","id":"base:cn-mengzi","geometry":{"type":"Point","coordinates":[103.36225,23.39709]},"properties":{"id":"e:base:cn-mengzi","name":"云南蒙自石榴产区","kind":"production_area","commodityIds":["e:cmd:pomegranate"],"commodityNames":["石榴"],"country":"CN","adminArea":"云南省红河州蒙自市","geoPrecision":"region_center","coordinateMeaning":"产区所在行政区代表点（非田块级坐标）","anchorPlace":"蒙自市","provenance":{"provider":"OpenStreetMap Nominatim","url":"https://nominatim.openstreetmap.org/search","license":"ODbL 1.0 (© OpenStreetMap contributors)","collectedAt":"2026-09-21","osmId":2719414,"geonameId":null}}},{"type":"Feature","id":"base:cn-akesu","geometry":{"type":"Point","coordinates":[80.25819,41.16867]},"properties":{"id":"e:base:cn-akesu","name":"新疆阿克苏苹果产区","kind":"production_area","commodityIds":["e:cmd:apple"],"commodityNames":["苹果"],"country":"CN","adminArea":"新疆阿克苏地区","geoPrecision":"region_center","coordinateMeaning":"产区所在行政区代表点（非田块级坐标）","anchorPlace":"阿克苏市","provenance":{"provider":"OpenStreetMap Nominatim","url":"https://nominatim.openstreetmap.org/search","license":"ODbL 1.0 (© OpenStreetMap contributors)","collectedAt":"2026-09-21","osmId":2748928,"geonameId":null}}},{"type":"Feature","id":"base:cn-wuchang","geometry":{"type":"Point","coordinates":[127.16094,44.92993]},"properties":{"id":"e:base:cn-wuchang","name":"黑龙江五常稻米产区","kind":"production_area","commodityIds":["e:cmd:rice"],"commodityNames":["大米"],"country":"CN","adminArea":"黑龙江省哈尔滨市五常市","geoPrecision":"region_center","coordinateMeaning":"产区所在行政区代表点（非田块级坐标）","anchorPlace":"五常市","provenance":{"provider":"OpenStreetMap Nominatim","url":"https://nominatim.openstreetmap.org/search","license":"ODbL 1.0 (© OpenStreetMap contributors)","collectedAt":"2026-09-21","osmId":2755763,"geonameId":null}}},{"type":"Feature","id":"base:cn-zigui","geometry":{"type":"Point","coordinates":[110.97253,30.82759]},"properties":{"id":"e:base:cn-zigui","name":"湖北秭归脐橙产区","kind":"production_area","commodityIds":["e:cmd:navel-orange"],"commodityNames":["脐橙"],"country":"CN","adminArea":"湖北省宜昌市秭归县","geoPrecision":"region_center","coordinateMeaning":"产区所在行政区代表点（非田块级坐标）","anchorPlace":"秭归县","provenance":{"provider":"OpenStreetMap Nominatim","url":"https://nominatim.openstreetmap.org/search","license":"ODbL 1.0 (© OpenStreetMap contributors)","collectedAt":"2026-09-21","osmId":2719052,"geonameId":null}}},{"type":"Feature","id":"base:cn-lipu","geometry":{"type":"Point","coordinates":[110.39048,24.49143]},"properties":{"id":"e:base:cn-lipu","name":"广西荔浦砂糖橘产区","kind":"production_area","commodityIds":["e:cmd:citrus-sugar"],"commodityNames":["砂糖橘"],"country":"CN","adminArea":"广西桂林市荔浦市","geoPrecision":"region_center","coordinateMeaning":"产区所在行政区代表点（非田块级坐标）","anchorPlace":"荔浦市","provenance":{"provider":"OpenStreetMap Nominatim","url":"https://nominatim.openstreetmap.org/search","license":"ODbL 1.0 (© OpenStreetMap contributors)","collectedAt":"2026-09-21","osmId":2773818,"geonameId":null}}},{"type":"Feature","id":"base:cn-baise","geometry":{"type":"Point","coordinates":[106.61488,23.90536]},"properties":{"id":"e:base:cn-baise","name":"广西百色芒果产区","kind":"production_area","commodityIds":["e:cmd:mango"],"commodityNames":["芒果"],"country":"CN","adminArea":"广西百色市","geoPrecision":"region_center","coordinateMeaning":"产区所在行政区代表点（非田块级坐标）","anchorPlace":"百色市","provenance":{"provider":"OpenStreetMap Nominatim","url":"https://nominatim.openstreetmap.org/search","license":"ODbL 1.0 (© OpenStreetMap contributors)","collectedAt":"2026-09-21","osmId":2773986,"geonameId":null}}},{"type":"Feature","id":"base:cn-sanya","geometry":{"type":"Point","coordinates":[109.50344,18.25347]},"properties":{"id":"e:base:cn-sanya","name":"海南三亚冬季瓜菜产区","kind":"production_area","commodityIds":["e:cmd:watermelon","e:cmd:chili"],"commodityNames":["西瓜","辣椒"],"country":"CN","adminArea":"海南省三亚市","geoPrecision":"region_center","coordinateMeaning":"产区所在行政区代表点（非田块级坐标）","anchorPlace":"三亚市","provenance":{"provider":"OpenStreetMap Nominatim","url":"https://nominatim.openstreetmap.org/search","license":"ODbL 1.0 (© OpenStreetMap contributors)","collectedAt":"2026-09-21","osmId":2128284,"geonameId":null}}},{"type":"Feature","id":"base:my-raub","geometry":{"type":"Point","coordinates":[101.857,3.7899]},"properties":{"id":"e:base:my-raub","name":"马来西亚彭亨劳勿猫山王产区","kind":"production_area","commodityIds":["e:cmd:musang-king"],"commodityNames":["猫山王榴莲"],"country":"MY","adminArea":"Pahang, Raub","geoPrecision":"region_center","coordinateMeaning":"产区所在行政区代表点（非田块级坐标）","anchorPlace":"Raub","provenance":{"provider":"GeoNames","url":"https://download.geonames.org/export/dump/cities5000.zip","license":"CC BY 4.0","collectedAt":"2026-09-21","osmId":null,"geonameId":"1732663"}}},{"type":"Feature","id":"base:my-kedah","geometry":{"type":"Point","coordinates":[100.34459,5.41911]},"properties":{"id":"e:base:my-kedah","name":"马来西亚吉打州稻米产区","kind":"production_area","commodityIds":["e:cmd:rice"],"commodityNames":["大米"],"country":"CN","adminArea":"北部稻米主产区（吉打—玻璃市稻仓）","geoPrecision":"region_center","coordinateMeaning":"产区所在行政区代表点（非田块级坐标）","anchorPlace":"Penang","provenance":{"provider":"OpenStreetMap Nominatim","url":"https://nominatim.openstreetmap.org/search","license":"ODbL 1.0 (© OpenStreetMap contributors)","collectedAt":"2026-09-21","osmId":1029487734,"geonameId":null}}},{"type":"Feature","id":"base:th-chanthaburi","geometry":{"type":"Point","coordinates":[102.10447,12.60961]},"properties":{"id":"e:base:th-chanthaburi","name":"泰国尖竹汶榴莲产区","kind":"production_area","commodityIds":["e:cmd:durian"],"commodityNames":["榴莲"],"country":"TH","adminArea":"Chanthaburi","geoPrecision":"region_center","coordinateMeaning":"产区所在行政区代表点（非田块级坐标）","anchorPlace":"Chanthaburi","provenance":{"provider":"GeoNames","url":"https://download.geonames.org/export/dump/cities5000.zip","license":"CC BY 4.0","collectedAt":"2026-09-21","osmId":null,"geonameId":"1611269"}}},{"type":"Feature","id":"base:th-rayong","geometry":{"type":"Point","coordinates":[101.25798,12.68095]},"properties":{"id":"e:base:th-rayong","name":"泰国罗勇水果产区","kind":"production_area","commodityIds":["e:cmd:durian","e:cmd:mangosteen"],"commodityNames":["榴莲","山竹"],"country":"TH","adminArea":"Rayong","geoPrecision":"region_center","coordinateMeaning":"产区所在行政区代表点（非田块级坐标）","anchorPlace":"Rayong","provenance":{"provider":"GeoNames","url":"https://download.geonames.org/export/dump/cities5000.zip","license":"CC BY 4.0","collectedAt":"2026-09-21","osmId":null,"geonameId":"1607017"}}},{"type":"Feature","id":"base:th-bangkok","geometry":{"type":"Point","coordinates":[100.50144,13.75398]},"properties":{"id":"e:base:th-bangkok","name":"泰国中部水稻产区","kind":"production_area","commodityIds":["e:cmd:rice-thai"],"commodityNames":["泰国香米"],"country":"TH","adminArea":"Central Thailand","geoPrecision":"region_center","coordinateMeaning":"产区所在行政区代表点（非田块级坐标）","anchorPlace":"Bangkok","provenance":{"provider":"GeoNames","url":"https://download.geonames.org/export/dump/cities5000.zip","license":"CC BY 4.0","collectedAt":"2026-09-21","osmId":null,"geonameId":"1609350"}}},{"type":"Feature","id":"base:vn-tiengiang","geometry":{"type":"Point","coordinates":[106.35996,10.36004]},"properties":{"id":"e:base:vn-tiengiang","name":"越南前江榴莲产区","kind":"production_area","commodityIds":["e:cmd:durian"],"commodityNames":["榴莲"],"country":"VN","adminArea":"Tien Giang","geoPrecision":"region_center","coordinateMeaning":"产区所在行政区代表点（非田块级坐标）","anchorPlace":"My Tho","provenance":{"provider":"GeoNames","url":"https://download.geonames.org/export/dump/cities5000.zip","license":"CC BY 4.0","collectedAt":"2026-09-21","osmId":null,"geonameId":"1574023"}}},{"type":"Feature","id":"base:vn-cantho","geometry":{"type":"Point","coordinates":[105.78825,10.03711]},"properties":{"id":"e:base:vn-cantho","name":"越南芹苴水稻与水果产区","kind":"production_area","commodityIds":["e:cmd:rice-vietnam","e:cmd:mango"],"commodityNames":["越南大米","芒果"],"country":"VN","adminArea":"Can Tho","geoPrecision":"region_center","coordinateMeaning":"产区所在行政区代表点（非田块级坐标）","anchorPlace":"Can Tho","provenance":{"provider":"GeoNames","url":"https://download.geonames.org/export/dump/cities5000.zip","license":"CC BY 4.0","collectedAt":"2026-09-21","osmId":null,"geonameId":"1586203"}}},{"type":"Feature","id":"base:br-mt","geometry":{"type":"Point","coordinates":[-55.71139,-12.54528]},"properties":{"id":"e:base:br-mt","name":"巴西马托格罗索大豆玉米产区","kind":"production_area","commodityIds":["e:cmd:soybean","e:cmd:corn"],"commodityNames":["大豆","玉米"],"country":"BR","adminArea":"Mato Grosso","geoPrecision":"region_center","coordinateMeaning":"产区所在行政区代表点（非田块级坐标）","anchorPlace":"Sorriso","provenance":{"provider":"GeoNames","url":"https://download.geonames.org/export/dump/cities5000.zip","license":"CC BY 4.0","collectedAt":"2026-09-21","osmId":null,"geonameId":"6318714"}}},{"type":"Feature","id":"base:br-cuiaba","geometry":{"type":"Point","coordinates":[-56.09667,-15.59611]},"properties":{"id":"e:base:br-cuiaba","name":"巴西库亚巴粮食物流产区","kind":"production_area","commodityIds":["e:cmd:soybean"],"commodityNames":["大豆"],"country":"BR","adminArea":"Mato Grosso","geoPrecision":"region_center","coordinateMeaning":"产区所在行政区代表点（非田块级坐标）","anchorPlace":"Cuiaba","provenance":{"provider":"GeoNames","url":"https://download.geonames.org/export/dump/cities5000.zip","license":"CC BY 4.0","collectedAt":"2026-09-21","osmId":null,"geonameId":"3465038"}}},{"type":"Feature","id":"base:br-parana","geometry":{"type":"Point","coordinates":[-53.45528,-24.95583]},"properties":{"id":"e:base:br-parana","name":"巴西帕拉纳大豆产区","kind":"production_area","commodityIds":["e:cmd:soybean","e:cmd:corn"],"commodityNames":["大豆","玉米"],"country":"BR","adminArea":"Parana","geoPrecision":"region_center","coordinateMeaning":"产区所在行政区代表点（非田块级坐标）","anchorPlace":"Cascavel","provenance":{"provider":"GeoNames","url":"https://download.geonames.org/export/dump/cities5000.zip","license":"CC BY 4.0","collectedAt":"2026-09-21","osmId":null,"geonameId":"3466779"}}},{"type":"Feature","id":"base:cl-ohiggins","geometry":{"type":"Point","coordinates":[-70.74053,-34.1691]},"properties":{"id":"e:base:cl-ohiggins","name":"智利奥伊金斯车厘子产区","kind":"production_area","commodityIds":["e:cmd:cherry"],"commodityNames":["车厘子"],"country":"CL","adminArea":"Region de O'Higgins","geoPrecision":"region_center","coordinateMeaning":"产区所在行政区代表点（非田块级坐标）","anchorPlace":"Rancagua","provenance":{"provider":"GeoNames","url":"https://download.geonames.org/export/dump/cities5000.zip","license":"CC BY 4.0","collectedAt":"2026-09-21","osmId":null,"geonameId":"3873775"}}},{"type":"Feature","id":"base:cl-maule","geometry":{"type":"Point","coordinates":[-71.64974,-35.4232]},"properties":{"id":"e:base:cl-maule","name":"智利马乌莱水果与葡萄酒产区","kind":"production_area","commodityIds":["e:cmd:grape","e:cmd:cherry"],"commodityNames":["葡萄","车厘子"],"country":"CL","adminArea":"Region del Maule","geoPrecision":"region_center","coordinateMeaning":"产区所在行政区代表点（非田块级坐标）","anchorPlace":"Talca","provenance":{"provider":"GeoNames","url":"https://download.geonames.org/export/dump/cities5000.zip","license":"CC BY 4.0","collectedAt":"2026-09-21","osmId":null,"geonameId":"3870294"}}},{"type":"Feature","id":"base:us-iowa","geometry":{"type":"Point","coordinates":[-93.60911,41.60054]},"properties":{"id":"e:base:us-iowa","name":"美国爱荷华玉米大豆产区","kind":"production_area","commodityIds":["e:cmd:corn","e:cmd:soybean"],"commodityNames":["玉米","大豆"],"country":"US","adminArea":"Iowa","geoPrecision":"region_center","coordinateMeaning":"产区所在行政区代表点（非田块级坐标）","anchorPlace":"Des Moines","provenance":{"provider":"GeoNames","url":"https://download.geonames.org/export/dump/cities5000.zip","license":"CC BY 4.0","collectedAt":"2026-09-21","osmId":null,"geonameId":"4853828"}}},{"type":"Feature","id":"base:us-missouri","geometry":{"type":"Point","coordinates":[-93.29824,37.21533]},"properties":{"id":"e:base:us-missouri","name":"美国密苏里玉米大豆产区","kind":"production_area","commodityIds":["e:cmd:corn","e:cmd:soybean"],"commodityNames":["玉米","大豆"],"country":"US","adminArea":"Missouri","geoPrecision":"region_center","coordinateMeaning":"产区所在行政区代表点（非田块级坐标）","anchorPlace":"Springfield","provenance":{"provider":"GeoNames","url":"https://download.geonames.org/export/dump/cities5000.zip","license":"CC BY 4.0","collectedAt":"2026-09-21","osmId":null,"geonameId":"4409896"}}},{"type":"Feature","id":"base:us-california","geometry":{"type":"Point","coordinates":[-119.77237,36.74773]},"properties":{"id":"e:base:us-california","name":"美国加州中央谷地果蔬产区","kind":"production_area","commodityIds":["e:cmd:grape","e:cmd:blueberry"],"commodityNames":["葡萄","蓝莓"],"country":"US","adminArea":"California Central Valley","geoPrecision":"region_center","coordinateMeaning":"产区所在行政区代表点（非田块级坐标）","anchorPlace":"Fresno","provenance":{"provider":"GeoNames","url":"https://download.geonames.org/export/dump/cities5000.zip","license":"CC BY 4.0","collectedAt":"2026-09-21","osmId":null,"geonameId":"5350937"}}},{"type":"Feature","id":"base:us-nebraska","geometry":{"type":"Point","coordinates":[-95.94043,41.25626]},"properties":{"id":"e:base:us-nebraska","name":"美国内布拉斯加牛肉与玉米产区","kind":"production_area","commodityIds":["e:cmd:beef","e:cmd:corn"],"commodityNames":["牛肉","玉米"],"country":"US","adminArea":"Nebraska","geoPrecision":"region_center","coordinateMeaning":"产区所在行政区代表点（非田块级坐标）","anchorPlace":"Omaha","provenance":{"provider":"GeoNames","url":"https://download.geonames.org/export/dump/cities5000.zip","license":"CC BY 4.0","collectedAt":"2026-09-21","osmId":null,"geonameId":"5074472"}}},{"type":"Feature","id":"base:in-punjab","geometry":{"type":"Point","coordinates":[75.85379,30.91204]},"properties":{"id":"e:base:in-punjab","name":"印度旁遮普小麦水稻产区","kind":"production_area","commodityIds":["e:cmd:wheat","e:cmd:rice"],"commodityNames":["小麦","大米"],"country":"IN","adminArea":"Punjab","geoPrecision":"region_center","coordinateMeaning":"产区所在行政区代表点（非田块级坐标）","anchorPlace":"Ludhiana","provenance":{"provider":"GeoNames","url":"https://download.geonames.org/export/dump/cities5000.zip","license":"CC BY 4.0","collectedAt":"2026-09-21","osmId":null,"geonameId":"1264728"}}},{"type":"Feature","id":"base:in-maharashtra","geometry":{"type":"Point","coordinates":[73.85535,18.51957]},"properties":{"id":"e:base:in-maharashtra","name":"印度马哈拉施特拉甘蔗洋葱产区","kind":"production_area","commodityIds":["e:cmd:sugar","e:cmd:chili"],"commodityNames":["食糖","辣椒"],"country":"IN","adminArea":"Maharashtra","geoPrecision":"region_center","coordinateMeaning":"产区所在行政区代表点（非田块级坐标）","anchorPlace":"Pune","provenance":{"provider":"GeoNames","url":"https://download.geonames.org/export/dump/cities5000.zip","license":"CC BY 4.0","collectedAt":"2026-09-21","osmId":null,"geonameId":"1259229"}}},{"type":"Feature","id":"base:au-queensland","geometry":{"type":"Point","coordinates":[150.50595,-23.38032]},"properties":{"id":"e:base:au-queensland","name":"澳大利亚昆士兰牛肉与甘蔗产区","kind":"production_area","commodityIds":["e:cmd:beef","e:cmd:sugar"],"commodityNames":["牛肉","食糖"],"country":"AU","adminArea":"Queensland","geoPrecision":"region_center","coordinateMeaning":"产区所在行政区代表点（非田块级坐标）","anchorPlace":"Rockhampton","provenance":{"provider":"GeoNames","url":"https://download.geonames.org/export/dump/cities5000.zip","license":"CC BY 4.0","collectedAt":"2026-09-21","osmId":null,"geonameId":"2151437"}}},{"type":"Feature","id":"base:au-nsw","geometry":{"type":"Point","coordinates":[148.60484,-32.24295]},"properties":{"id":"e:base:au-nsw","name":"澳大利亚新南威尔士小麦产区","kind":"production_area","commodityIds":["e:cmd:wheat"],"commodityNames":["小麦"],"country":"AU","adminArea":"New South Wales","geoPrecision":"region_center","coordinateMeaning":"产区所在行政区代表点（非田块级坐标）","anchorPlace":"Dubbo","provenance":{"provider":"GeoNames","url":"https://download.geonames.org/export/dump/cities5000.zip","license":"CC BY 4.0","collectedAt":"2026-09-21","osmId":null,"geonameId":"2168305"}}},{"type":"Feature","id":"base:id-kalteng","geometry":{"type":"Point","coordinates":[113.91667,-2.20833]},"properties":{"id":"e:base:id-kalteng","name":"印尼中加里曼丹棕榈产区","kind":"production_area","commodityIds":["e:cmd:palm-oil"],"commodityNames":["棕榈油"],"country":"ID","adminArea":"Kalimantan Tengah","geoPrecision":"region_center","coordinateMeaning":"产区所在行政区代表点（非田块级坐标）","anchorPlace":"Palangkaraya","provenance":{"provider":"GeoNames","url":"https://download.geonames.org/export/dump/cities5000.zip","license":"CC BY 4.0","collectedAt":"2026-09-21","osmId":null,"geonameId":"1633118"}}},{"type":"Feature","id":"base:id-sampit","geometry":{"type":"Point","coordinates":[112.9496,-2.5315]},"properties":{"id":"e:base:id-sampit","name":"印尼桑皮特棕榈带","kind":"production_area","commodityIds":["e:cmd:palm-oil"],"commodityNames":["棕榈油"],"country":"ID","adminArea":"Kalimantan Tengah","geoPrecision":"region_center","coordinateMeaning":"产区所在行政区代表点（非田块级坐标）","anchorPlace":"Sampit","provenance":{"provider":"GeoNames","url":"https://download.geonames.org/export/dump/cities5000.zip","license":"CC BY 4.0","collectedAt":"2026-09-21","osmId":null,"geonameId":"1628884"}}},{"type":"Feature","id":"base:ph-davao","geometry":{"type":"Point","coordinates":[125.61278,7.07306]},"properties":{"id":"e:base:ph-davao","name":"菲律宾达沃香蕉产区","kind":"production_area","commodityIds":["e:cmd:banana"],"commodityNames":["香蕉"],"country":"PH","adminArea":"Davao Region","geoPrecision":"region_center","coordinateMeaning":"产区所在行政区代表点（非田块级坐标）","anchorPlace":"Davao","provenance":{"provider":"GeoNames","url":"https://download.geonames.org/export/dump/cities5000.zip","license":"CC BY 4.0","collectedAt":"2026-09-21","osmId":null,"geonameId":"1715348"}}},{"type":"Feature","id":"base:ke-nakuru","geometry":{"type":"Point","coordinates":[36.07225,-0.30719]},"properties":{"id":"e:base:ke-nakuru","name":"肯尼亚纳库鲁玉米与茶叶产区","kind":"production_area","commodityIds":["e:cmd:corn","e:cmd:tea"],"commodityNames":["玉米","茶叶"],"country":"KE","adminArea":"Nakuru County","geoPrecision":"region_center","coordinateMeaning":"产区所在行政区代表点（非田块级坐标）","anchorPlace":"Nakuru","provenance":{"provider":"GeoNames","url":"https://download.geonames.org/export/dump/cities5000.zip","license":"CC BY 4.0","collectedAt":"2026-09-21","osmId":null,"geonameId":"184622"}}},{"type":"Feature","id":"base:ng-oyo","geometry":{"type":"Point","coordinates":[3.90591,7.37756]},"properties":{"id":"e:base:ng-oyo","name":"尼日利亚奥约木薯与可可产区","kind":"production_area","commodityIds":["e:cmd:cocoa"],"commodityNames":["可可"],"country":"NG","adminArea":"Oyo State","geoPrecision":"region_center","coordinateMeaning":"产区所在行政区代表点（非田块级坐标）","anchorPlace":"Ibadan","provenance":{"provider":"GeoNames","url":"https://download.geonames.org/export/dump/cities5000.zip","license":"CC BY 4.0","collectedAt":"2026-09-21","osmId":null,"geonameId":"2339354"}}},{"type":"Feature","id":"base:eg-gharbia","geometry":{"type":"Point","coordinates":[31.00192,30.78847]},"properties":{"id":"e:base:eg-gharbia","name":"埃及坦塔小麦与柑橘产区","kind":"production_area","commodityIds":["e:cmd:wheat","e:cmd:navel-orange"],"commodityNames":["小麦","脐橙"],"country":"EG","adminArea":"Gharbia Governorate","geoPrecision":"region_center","coordinateMeaning":"产区所在行政区代表点（非田块级坐标）","anchorPlace":"Tanta","provenance":{"provider":"GeoNames","url":"https://download.geonames.org/export/dump/cities5000.zip","license":"CC BY 4.0","collectedAt":"2026-09-21","osmId":null,"geonameId":"347497"}}},{"type":"Feature","id":"base:za-free-state","geometry":{"type":"Point","coordinates":[26.214,-29.12107]},"properties":{"id":"e:base:za-free-state","name":"南非自由州玉米产区","kind":"production_area","commodityIds":["e:cmd:corn"],"commodityNames":["玉米"],"country":"ZA","adminArea":"Free State","geoPrecision":"region_center","coordinateMeaning":"产区所在行政区代表点（非田块级坐标）","anchorPlace":"Bloemfontein","provenance":{"provider":"GeoNames","url":"https://download.geonames.org/export/dump/cities5000.zip","license":"CC BY 4.0","collectedAt":"2026-09-21","osmId":null,"geonameId":"1018725"}}},{"type":"Feature","id":"base:ci-abidjan","geometry":{"type":"Point","coordinates":[-4.00167,5.35444]},"properties":{"id":"e:base:ci-abidjan","name":"科特迪瓦阿比让可可产区","kind":"production_area","commodityIds":["e:cmd:cocoa"],"commodityNames":["可可"],"country":"CI","adminArea":"Abidjan","geoPrecision":"region_center","coordinateMeaning":"产区所在行政区代表点（非田块级坐标）","anchorPlace":"Abidjan","provenance":{"provider":"GeoNames","url":"https://download.geonames.org/export/dump/cities5000.zip","license":"CC BY 4.0","collectedAt":"2026-09-21","osmId":null,"geonameId":"2293538"}}},{"type":"Feature","id":"base:et-jimma","geometry":{"type":"Point","coordinates":[36.83441,7.67344]},"properties":{"id":"e:base:et-jimma","name":"埃塞俄比亚吉马咖啡产区","kind":"production_area","commodityIds":["e:cmd:coffee"],"commodityNames":["咖啡"],"country":"ET","adminArea":"Oromia","geoPrecision":"region_center","coordinateMeaning":"产区所在行政区代表点（非田块级坐标）","anchorPlace":"Jimma","provenance":{"provider":"GeoNames","url":"https://download.geonames.org/export/dump/cities5000.zip","license":"CC BY 4.0","collectedAt":"2026-09-21","osmId":null,"geonameId":"333772"}}},{"type":"Feature","id":"base:fr-champagne","geometry":{"type":"Point","coordinates":[4.02853,49.26526]},"properties":{"id":"e:base:fr-champagne","name":"法国香槟区小麦与大麦产区","kind":"production_area","commodityIds":["e:cmd:wheat"],"commodityNames":["小麦"],"country":"FR","adminArea":"Grand Est","geoPrecision":"region_center","coordinateMeaning":"产区所在行政区代表点（非田块级坐标）","anchorPlace":"Reims","provenance":{"provider":"GeoNames","url":"https://download.geonames.org/export/dump/cities5000.zip","license":"CC BY 4.0","collectedAt":"2026-09-21","osmId":null,"geonameId":"2984114"}}},{"type":"Feature","id":"base:es-murcia","geometry":{"type":"Point","coordinates":[-1.13004,37.98704]},"properties":{"id":"e:base:es-murcia","name":"西班牙穆尔西亚果蔬产区","kind":"production_area","commodityIds":["e:cmd:tomato","e:cmd:citrus-sugar"],"commodityNames":["番茄","砂糖橘"],"country":"ES","adminArea":"Region de Murcia","geoPrecision":"region_center","coordinateMeaning":"产区所在行政区代表点（非田块级坐标）","anchorPlace":"Murcia","provenance":{"provider":"GeoNames","url":"https://download.geonames.org/export/dump/cities5000.zip","license":"CC BY 4.0","collectedAt":"2026-09-21","osmId":null,"geonameId":"2513416"}}},{"type":"Feature","id":"base:ua-odesa","geometry":{"type":"Point","coordinates":[30.74383,46.48572]},"properties":{"id":"e:base:ua-odesa","name":"乌克兰敖德萨小麦玉米产区","kind":"production_area","commodityIds":["e:cmd:wheat","e:cmd:corn"],"commodityNames":["小麦","玉米"],"country":"UA","adminArea":"Odesa Oblast","geoPrecision":"region_center","coordinateMeaning":"产区所在行政区代表点（非田块级坐标）","anchorPlace":"Odesa","provenance":{"provider":"GeoNames","url":"https://download.geonames.org/export/dump/cities5000.zip","license":"CC BY 4.0","collectedAt":"2026-09-21","osmId":null,"geonameId":"698740"}}},{"type":"Feature","id":"base:nl-westland","geometry":{"type":"Point","coordinates":[4.88969,52.37403]},"properties":{"id":"e:base:nl-westland","name":"荷兰温室园艺产区","kind":"production_area","commodityIds":["e:cmd:tomato"],"commodityNames":["番茄"],"country":"NL","adminArea":"Westland (Zuid-Holland)","geoPrecision":"region_center","coordinateMeaning":"产区所在行政区代表点（非田块级坐标）","anchorPlace":"Amsterdam","provenance":{"provider":"GeoNames","url":"https://download.geonames.org/export/dump/cities5000.zip","license":"CC BY 4.0","collectedAt":"2026-09-21","osmId":null,"geonameId":"2759794"}}}]}